{
  "type": "FeatureCollection",
  "name": "Inference_external_drone_rettern_crop650_Buildings",
  "properties": {
    "input_image": "external_drone_rettern_crop650.jpg",
    "model": "LightUNet",
    "checkpoint": "best_model.pth",
    "inference_time_ms": 80.25,
    "mode": "resize",
    "georeferenced": false,
    "crs": "None (pixel coordinates)",
    "building_count": 13,
    "mean_confidence": 0.786
  },
  "features": [
    {
      "type": "Feature",
      "id": "BLD-001",
      "geometry": {
        "type": "Polygon",
        "coordinates": [
          [
            [
              436.0,
              535.0
            ],
            [
              422.0,
              536.0
            ],
            [
              419.0,
              552.0
            ],
            [
              430.0,
              574.0
            ],
            [
              445.0,
              571.0
            ],
            [
              449.0,
              562.0
            ],
            [
              448.0,
              543.0
            ],
            [
              436.0,
              535.0
            ]
          ]
        ]
      },
      "properties": {
        "id": "BLD-001",
        "class": "building",
        "source": "LightUNet",
        "confidence": 0.841,
        "pixel_area": 927.0,
        "georeferenced": false
      }
    },
    {
      "type": "Feature",
      "id": "BLD-002",
      "geometry": {
        "type": "Polygon",
        "coordinates": [
          [
            [
              68.0,
              500.0
            ],
            [
              40.0,
              486.0
            ],
            [
              31.0,
              490.0
            ],
            [
              31.0,
              500.0
            ],
            [
              3.0,
              500.0
            ],
            [
              0.0,
              532.0
            ],
            [
              37.0,
              540.0
            ],
            [
              51.0,
              538.0
            ],
            [
              59.0,
              532.0
            ],
            [
              59.0,
              519.0
            ],
            [
              50.0,
              510.0
            ],
            [
              66.0,
              509.0
            ],
            [
              68.0,
              500.0
            ]
          ]
        ]
      },
      "properties": {
        "id": "BLD-002",
        "class": "building",
        "source": "LightUNet",
        "confidence": 0.881,
        "pixel_area": 2513.0,
        "georeferenced": false
      }
    },
    {
      "type": "Feature",
      "id": "BLD-003",
      "geometry": {
        "type": "Polygon",
        "coordinates": [
          [
            [
              2.0,
              488.0
            ],
            [
              4.0,
              493.0
            ],
            [
              24.0,
              492.0
            ],
            [
              24.0,
              488.0
            ],
            [
              16.0,
              486.0
            ],
            [
              2.0,
              488.0
            ]
          ]
        ]
      },
      "properties": {
        "id": "BLD-003",
        "class": "building",
        "source": "LightUNet",
        "confidence": 0.654,
        "pixel_area": 131.5,
        "georeferenced": false
      }
    },
    {
      "type": "Feature",
      "id": "BLD-004",
      "geometry": {
        "type": "Polygon",
        "coordinates": [
          [
            [
              272.0,
              292.0
            ],
            [
              266.0,
              282.0
            ],
            [
              260.0,
              281.0
            ],
            [
              244.0,
              292.0
            ],
            [
              244.0,
              298.0
            ],
            [
              266.0,
              299.0
            ],
            [
              272.0,
              292.0
            ]
          ]
        ]
      },
      "properties": {
        "id": "BLD-004",
        "class": "building",
        "source": "LightUNet",
        "confidence": 0.706,
        "pixel_area": 376.5,
        "georeferenced": false
      }
    },
    {
      "type": "Feature",
      "id": "BLD-005",
      "geometry": {
        "type": "Polygon",
        "coordinates": [
          [
            [
              2.0,
              215.0
            ],
            [
              0.0,
              239.0
            ],
            [
              8.0,
              241.0
            ],
            [
              9.0,
              218.0
            ],
            [
              2.0,
              215.0
            ]
          ]
        ]
      },
      "properties": {
        "id": "BLD-005",
        "class": "building",
        "source": "LightUNet",
        "confidence": 0.743,
        "pixel_area": 204.5,
        "georeferenced": false
      }
    },
    {
      "type": "Feature",
      "id": "BLD-006",
      "geometry": {
        "type": "Polygon",
        "coordinates": [
          [
            [
              0.0,
              185.0
            ],
            [
              0.0,
              206.0
            ],
            [
              14.0,
              208.0
            ],
            [
              19.0,
              215.0
            ],
            [
              43.0,
              214.0
            ],
            [
              64.0,
              224.0
            ],
            [
              80.0,
              217.0
            ],
            [
              75.0,
              228.0
            ],
            [
              76.0,
              241.0
            ],
            [
              102.0,
              247.0
            ],
            [
              110.0,
              239.0
            ],
            [
              114.0,
              225.0
            ],
            [
              143.0,
              220.0
            ],
            [
              150.0,
              228.0
            ],
            [
              162.0,
              228.0
            ],
            [
              181.0,
              221.0
            ],
            [
              157.0,
              242.0
            ],
            [
              163.0,
              261.0
            ],
            [
              154.0,
              267.0
            ],
            [
              162.0,
              274.0
            ],
            [
              163.0,
              285.0
            ],
            [
              169.0,
              292.0
            ],
            [
              191.0,
              294.0
            ],
            [
              194.0,
              285.0
            ],
            [
              190.0,
              265.0
            ],
            [
              204.0,
              258.0
            ],
            [
              223.0,
              263.0
            ],
            [
              203.0,
              285.0
            ],
            [
              211.0,
              300.0
            ],
            [
              239.0,
              290.0
            ],
            [
              266.0,
              268.0
            ],
            [
              254.0,
              252.0
            ],
            [
              254.0,
              245.0
            ],
            [
              273.0,
              244.0
            ],
            [
              269.0,
              228.0
            ],
            [
              263.0,
              226.0
            ],
            [
              249.0,
              234.0
            ],
            [
              232.0,
              206.0
            ],
            [
              221.0,
              201.0
            ],
            [
              220.0,
              190.0
            ],
            [
              199.0,
              153.0
            ],
            [
              184.0,
              160.0
            ],
            [
              174.0,
              159.0
            ],
            [
              151.0,
              177.0
            ],
            [
              143.0,
              174.0
            ],
            [
              140.0,
              159.0
            ],
            [
              113.0,
              155.0
            ],
            [
              120.0,
              174.0
            ],
            [
              132.0,
              188.0
            ],
            [
              139.0,
              189.0
            ],
            [
              139.0,
              199.0
            ],
            [
              125.0,
              208.0
            ],
            [
              115.0,
              205.0
            ],
            [
              105.0,
              183.0
            ],
            [
              102.0,
              153.0
            ],
            [
              43.0,
              168.0
            ],
            [
              35.0,
              181.0
            ],
            [
              37.0,
              189.0
            ],
            [
              45.0,
              192.0
            ],
            [
              42.0,
              203.0
            ],
            [
              36.0,
              203.0
            ],
            [
              23.0,
              187.0
            ],
            [
              0.0,
              185.0
            ]
          ]
        ]
      },
      "properties": {
        "id": "BLD-006",
        "class": "building",
        "source": "LightUNet",
        "confidence": 0.895,
        "pixel_area": 17854.5,
        "georeferenced": false
      }
    },
    {
      "type": "Feature",
      "id": "BLD-007",
      "geometry": {
        "type": "Polygon",
        "coordinates": [
          [
            [
              84.0,
              143.0
            ],
            [
              95.0,
              145.0
            ],
            [
              100.0,
              137.0
            ],
            [
              88.0,
              137.0
            ],
            [
              84.0,
              143.0
            ]
          ]
        ]
      },
      "properties": {
        "id": "BLD-007",
        "class": "building",
        "source": "LightUNet",
        "confidence": 0.723,
        "pixel_area": 113.5,
        "georeferenced": false
      }
    },
    {
      "type": "Feature",
      "id": "BLD-008",
      "geometry": {
        "type": "Polygon",
        "coordinates": [
          [
            [
              248.0,
              21.0
            ],
            [
              244.0,
              28.0
            ],
            [
              253.0,
              35.0
            ],
            [
              256.0,
              25.0
            ],
            [
              248.0,
              21.0
            ]
          ]
        ]
      },
      "properties": {
        "id": "BLD-008",
        "class": "building",
        "source": "LightUNet",
        "confidence": 0.709,
        "pixel_area": 134.0,
        "georeferenced": false
      }
    },
    {
      "type": "Feature",
      "id": "BLD-009",
      "geometry": {
        "type": "Polygon",
        "coordinates": [
          [
            [
              4.0,
              3.0
            ],
            [
              0.0,
              5.0
            ],
            [
              0.0,
              20.0
            ],
            [
              12.0,
              24.0
            ],
            [
              14.0,
              13.0
            ],
            [
              4.0,
              3.0
            ]
          ]
        ]
      },
      "properties": {
        "id": "BLD-009",
        "class": "building",
        "source": "LightUNet",
        "confidence": 0.743,
        "pixel_area": 244.5,
        "georeferenced": false
      }
    },
    {
      "type": "Feature",
      "id": "BLD-010",
      "geometry": {
        "type": "Polygon",
        "coordinates": [
          [
            [
              629.0,
              0.0
            ],
            [
              624.0,
              5.0
            ],
            [
              609.0,
              6.0
            ],
            [
              603.0,
              13.0
            ],
            [
              593.0,
              13.0
            ],
            [
              590.0,
              21.0
            ],
            [
              601.0,
              44.0
            ],
            [
              599.0,
              63.0
            ],
            [
              612.0,
              66.0
            ],
            [
              622.0,
              100.0
            ],
            [
              638.0,
              103.0
            ],
            [
              649.0,
              101.0
            ],
            [
              649.0,
              3.0
            ],
            [
              629.0,
              0.0
            ]
          ]
        ]
      },
      "properties": {
        "id": "BLD-010",
        "class": "building",
        "source": "LightUNet",
        "confidence": 0.889,
        "pixel_area": 4340.0,
        "georeferenced": false
      }
    },
    {
      "type": "Feature",
      "id": "BLD-011",
      "geometry": {
        "type": "Polygon",
        "coordinates": [
          [
            [
              397.0,
              3.0
            ],
            [
              400.0,
              13.0
            ],
            [
              413.0,
              6.0
            ],
            [
              412.0,
              0.0
            ],
            [
              397.0,
              3.0
            ]
          ]
        ]
      },
      "properties": {
        "id": "BLD-011",
        "class": "building",
        "source": "LightUNet",
        "confidence": 0.753,
        "pixel_area": 167.5,
        "georeferenced": false
      }
    },
    {
      "type": "Feature",
      "id": "BLD-012",
      "geometry": {
        "type": "Polygon",
        "coordinates": [
          [
            [
              12.0,
              64.0
            ],
            [
              13.0,
              73.0
            ],
            [
              0.0,
              82.0
            ],
            [
              0.0,
              96.0
            ],
            [
              19.0,
              105.0
            ],
            [
              23.0,
              112.0
            ],
            [
              34.0,
              110.0
            ],
            [
              47.0,
              118.0
            ],
            [
              55.0,
              113.0
            ],
            [
              69.0,
              121.0
            ],
            [
              108.0,
              111.0
            ],
            [
              141.0,
              115.0
            ],
            [
              148.0,
              108.0
            ],
            [
              169.0,
              102.0
            ],
            [
              170.0,
              90.0
            ],
            [
              174.0,
              89.0
            ],
            [
              196.0,
              133.0
            ],
            [
              214.0,
              132.0
            ],
            [
              220.0,
              124.0
            ],
            [
              230.0,
              129.0
            ],
            [
              234.0,
              123.0
            ],
            [
              266.0,
              131.0
            ],
            [
              267.0,
              149.0
            ],
            [
              302.0,
              153.0
            ],
            [
              278.0,
              163.0
            ],
            [
              255.0,
              160.0
            ],
            [
              248.0,
              166.0
            ],
            [
              252.0,
              181.0
            ],
            [
              265.0,
              196.0
            ],
            [
              272.0,
              187.0
            ],
            [
              286.0,
              202.0
            ],
            [
              289.0,
              227.0
            ],
            [
              284.0,
              233.0
            ],
            [
              295.0,
              255.0
            ],
            [
              294.0,
              260.0
            ],
            [
              278.0,
              256.0
            ],
            [
              273.0,
              263.0
            ],
            [
              286.0,
              299.0
            ],
            [
              252.0,
              332.0
            ],
            [
              238.0,
              335.0
            ],
            [
              232.0,
              325.0
            ],
            [
              216.0,
              326.0
            ],
            [
              208.0,
              312.0
            ],
            [
              181.0,
              306.0
            ],
            [
              178.0,
              314.0
            ],
            [
              184.0,
              325.0
            ],
            [
              178.0,
              328.0
            ],
            [
              162.0,
              306.0
            ],
            [
              145.0,
              268.0
            ],
            [
              136.0,
              268.0
            ],
            [
              114.0,
              286.0
            ],
            [
              97.0,
              282.0
            ],
            [
              97.0,
              307.0
            ],
            [
              89.0,
              320.0
            ],
            [
              91.0,
              328.0
            ],
            [
              84.0,
              333.0
            ],
            [
              92.0,
              356.0
            ],
            [
              53.0,
              374.0
            ],
            [
              44.0,
              371.0
            ],
            [
              39.0,
              361.0
            ],
            [
              65.0,
              344.0
            ],
            [
              76.0,
              325.0
            ],
            [
              74.0,
              319.0
            ],
            [
              54.0,
              304.0
            ],
            [
              50.0,
              292.0
            ],
            [
              42.0,
              287.0
            ],
            [
              37.0,
              294.0
            ],
            [
              25.0,
              282.0
            ],
            [
              12.0,
              288.0
            ],
            [
              0.0,
              285.0
            ],
            [
              0.0,
              419.0
            ],
            [
              51.0,
              409.0
            ],
            [
              81.0,
              409.0
            ],
            [
              92.0,
              435.0
            ],
            [
              101.0,
              434.0
            ],
            [
              108.0,
              451.0
            ],
            [
              129.0,
              462.0
            ],
            [
              143.0,
              463.0
            ],
            [
              166.0,
              483.0
            ],
            [
              203.0,
              490.0
            ],
            [
              217.0,
              483.0
            ],
            [
              230.0,
              487.0
            ],
            [
              249.0,
              504.0
            ],
            [
              297.0,
              512.0
            ],
            [
              304.0,
              519.0
            ],
            [
              304.0,
              538.0
            ],
            [
              311.0,
              555.0
            ],
            [
              308.0,
              566.0
            ],
            [
              291.0,
              567.0
            ],
            [
              276.0,
              585.0
            ],
            [
              240.0,
              583.0
            ],
            [
              235.0,
              577.0
            ],
            [
              243.0,
              550.0
            ],
            [
              239.0,
              535.0
            ],
            [
              221.0,
              535.0
            ],
            [
              216.0,
              554.0
            ],
            [
              223.0,
              565.0
            ],
            [
              212.0,
              568.0
            ],
            [
              208.0,
              564.0
            ],
            [
              206.0,
              527.0
            ],
            [
              194.0,
              518.0
            ],
            [
              146.0,
              508.0
            ],
            [
              131.0,
              521.0
            ],
            [
              125.0,
              542.0
            ],
            [
              129.0,
              559.0
            ],
            [
              122.0,
              575.0
            ],
            [
              85.0,
              576.0
            ],
            [
              67.0,
              584.0
            ],
            [
              57.0,
              578.0
            ],
            [
              54.0,
              569.0
            ],
            [
              27.0,
              560.0
            ],
            [
              28.0,
              556.0
            ],
            [
              42.0,
              556.0
            ],
            [
              39.0,
              548.0
            ],
            [
              2.0,
              545.0
            ],
            [
              3.0,
              594.0
            ],
            [
              17.0,
              591.0
            ],
            [
              42.0,
              606.0
            ],
            [
              52.0,
              593.0
            ],
            [
              59.0,
              591.0
            ],
            [
              87.0,
              603.0
            ],
            [
              101.0,
              601.0
            ],
            [
              107.0,
              607.0
            ],
            [
              143.0,
              598.0
            ],
            [
              175.0,
              612.0
            ],
            [
              184.0,
              622.0
            ],
            [
              193.0,
              621.0
            ],
            [
              199.0,
              629.0
            ],
            [
              207.0,
              625.0
            ],
            [
              209.0,
              617.0
            ],
            [
              226.0,
              621.0
            ],
            [
              252.0,
              619.0
            ],
            [
              256.0,
              623.0
            ],
            [
              273.0,
              617.0
            ],
            [
              279.0,
              623.0
            ],
            [
              281.0,
              644.0
            ],
            [
              291.0,
              640.0
            ],
            [
              306.0,
              622.0
            ],
            [
              353.0,
              623.0
            ],
            [
              355.0,
              614.0
            ],
            [
              347.0,
              599.0
            ],
            [
              355.0,
              549.0
            ],
            [
              364.0,
              546.0
            ],
            [
              393.0,
              557.0
            ],
            [
              412.0,
              554.0
            ],
            [
              409.0,
              523.0
            ],
            [
              418.0,
              512.0
            ],
            [
              424.0,
              484.0
            ],
            [
              415.0,
              478.0
            ],
            [
              402.0,
              478.0
            ],
            [
              401.0,
              474.0
            ],
            [
              410.0,
              466.0
            ],
            [
              419.0,
              446.0
            ],
            [
              425.0,
              468.0
            ],
            [
              446.0,
              480.0
            ],
            [
              445.0,
              488.0
            ],
            [
              455.0,
              496.0
            ],
            [
              457.0,
              523.0
            ],
            [
              470.0,
              529.0
            ],
            [
              458.0,
              547.0
            ],
            [
              469.0,
              552.0
            ],
            [
              478.0,
              540.0
            ],
            [
              488.0,
              546.0
            ],
            [
              481.0,
              559.0
            ],
            [
              455.0,
              562.0
            ],
            [
              456.0,
              575.0
            ],
            [
              449.0,
              580.0
            ],
            [
              446.0,
              603.0
            ],
            [
              427.0,
              587.0
            ],
            [
              418.0,
              591.0
            ],
            [
              409.0,
              613.0
            ],
            [
              414.0,
              631.0
            ],
            [
              431.0,
              633.0
            ],
            [
              427.0,
              649.0
            ],
            [
              438.0,
              642.0
            ],
            [
              444.0,
              649.0
            ],
            [
              541.0,
              649.0
            ],
            [
              543.0,
              643.0
            ],
            [
              549.0,
              649.0
            ],
            [
              649.0,
              649.0
            ],
            [
              649.0,
              607.0
            ],
            [
              611.0,
              580.0
            ],
            [
              601.0,
              580.0
            ],
            [
              582.0,
              568.0
            ],
            [
              565.0,
              572.0
            ],
            [
              566.0,
              555.0
            ],
            [
              547.0,
              557.0
            ],
            [
              547.0,
              542.0
            ],
            [
              556.0,
              535.0
            ],
            [
              545.0,
              522.0
            ],
            [
              552.0,
              499.0
            ],
            [
              570.0,
              503.0
            ],
            [
              567.0,
              514.0
            ],
            [
              576.0,
              529.0
            ],
            [
              566.0,
              536.0
            ],
            [
              569.0,
              545.0
            ],
            [
              585.0,
              538.0
            ],
            [
              595.0,
              517.0
            ],
            [
              585.0,
              491.0
            ],
            [
              595.0,
              484.0
            ],
            [
              596.0,
              473.0
            ],
            [
              573.0,
              445.0
            ],
            [
              582.0,
              430.0
            ],
            [
              591.0,
              442.0
            ],
            [
              592.0,
              462.0
            ],
            [
              605.0,
              455.0
            ],
            [
              608.0,
              465.0
            ],
            [
              622.0,
              467.0
            ],
            [
              617.0,
              504.0
            ],
            [
              601.0,
              507.0
            ],
            [
              602.0,
              523.0
            ],
            [
              596.0,
              529.0
            ],
            [
              599.0,
              541.0
            ],
            [
              609.0,
              554.0
            ],
            [
              625.0,
              560.0
            ],
            [
              622.0,
              574.0
            ],
            [
              649.0,
              597.0
            ],
            [
              649.0,
              521.0
            ],
            [
              645.0,
              517.0
            ],
            [
              649.0,
              512.0
            ],
            [
              649.0,
              357.0
            ],
            [
              625.0,
              368.0
            ],
            [
              610.0,
              382.0
            ],
            [
              610.0,
              394.0
            ],
            [
              603.0,
              404.0
            ],
            [
              583.0,
              396.0
            ],
            [
              580.0,
              379.0
            ],
            [
              572.0,
              380.0
            ],
            [
              563.0,
              362.0
            ],
            [
              563.0,
              351.0
            ],
            [
              573.0,
              335.0
            ],
            [
              575.0,
              308.0
            ],
            [
              595.0,
              292.0
            ],
            [
              598.0,
              256.0
            ],
            [
              607.0,
              260.0
            ],
            [
              608.0,
              290.0
            ],
            [
              614.0,
              298.0
            ],
            [
              609.0,
              310.0
            ],
            [
              618.0,
              310.0
            ],
            [
              644.0,
              331.0
            ],
            [
              644.0,
              318.0
            ],
            [
              649.0,
              315.0
            ],
            [
              649.0,
              278.0
            ],
            [
              635.0,
              279.0
            ],
            [
              627.0,
              274.0
            ],
            [
              649.0,
              269.0
            ],
            [
              649.0,
              138.0
            ],
            [
              644.0,
              133.0
            ],
            [
              633.0,
              133.0
            ],
            [
              629.0,
              125.0
            ],
            [
              649.0,
              118.0
            ],
            [
              649.0,
              114.0
            ],
            [
              622.0,
              114.0
            ],
            [
              603.0,
              95.0
            ],
            [
              595.0,
              104.0
            ],
            [
              587.0,
              98.0
            ],
            [
              589.0,
              105.0
            ],
            [
              574.0,
              112.0
            ],
            [
              558.0,
              103.0
            ],
            [
              551.0,
              90.0
            ],
            [
              549.0,
              4.0
            ],
            [
              542.0,
              3.0
            ],
            [
              535.0,
              10.0
            ],
            [
              518.0,
              7.0
            ],
            [
              507.0,
              11.0
            ],
            [
              494.0,
              26.0
            ],
            [
              484.0,
              22.0
            ],
            [
              471.0,
              25.0
            ],
            [
              477.0,
              36.0
            ],
            [
              466.0,
              72.0
            ],
            [
              474.0,
              81.0
            ],
            [
              481.0,
              79.0
            ],
            [
              488.0,
              94.0
            ],
            [
              475.0,
              108.0
            ],
            [
              478.0,
              135.0
            ],
            [
              488.0,
              139.0
            ],
            [
              537.0,
              137.0
            ],
            [
              575.0,
              120.0
            ],
            [
              587.0,
              134.0
            ],
            [
              603.0,
              133.0
            ],
            [
              608.0,
              141.0
            ],
            [
              618.0,
              140.0
            ],
            [
              627.0,
              162.0
            ],
            [
              640.0,
              166.0
            ],
            [
              646.0,
              178.0
            ],
            [
              633.0,
              184.0
            ],
            [
              633.0,
              198.0
            ],
            [
              614.0,
              197.0
            ],
            [
              596.0,
              203.0
            ],
            [
              585.0,
              202.0
            ],
            [
              569.0,
              179.0
            ],
            [
              544.0,
              185.0
            ],
            [
              541.0,
              199.0
            ],
            [
              547.0,
              222.0
            ],
            [
              547.0,
              256.0
            ],
            [
              540.0,
              247.0
            ],
            [
              535.0,
              223.0
            ],
            [
              514.0,
              230.0
            ],
            [
              502.0,
              226.0
            ],
            [
              471.0,
              234.0
            ],
            [
              455.0,
              232.0
            ],
            [
              446.0,
              244.0
            ],
            [
              448.0,
              272.0
            ],
            [
              443.0,
              296.0
            ],
            [
              449.0,
              313.0
            ],
            [
              450.0,
              344.0
            ],
            [
              439.0,
              339.0
            ],
            [
              436.0,
              290.0
            ],
            [
              425.0,
              287.0
            ],
            [
              416.0,
              294.0
            ],
            [
              393.0,
              297.0
            ],
            [
              389.0,
              286.0
            ],
            [
              369.0,
              265.0
            ],
            [
              405.0,
              261.0
            ],
            [
              431.0,
              247.0
            ],
            [
              427.0,
              205.0
            ],
            [
              436.0,
              198.0
            ],
            [
              448.0,
              199.0
            ],
            [
              439.0,
              182.0
            ],
            [
              439.0,
              164.0
            ],
            [
              446.0,
              155.0
            ],
            [
              461.0,
              151.0
            ],
            [
              461.0,
              101.0
            ],
            [
              453.0,
              104.0
            ],
            [
              452.0,
              114.0
            ],
            [
              446.0,
              120.0
            ],
            [
              442.0,
              77.0
            ],
            [
              410.0,
              89.0
            ],
            [
              409.0,
              147.0
            ],
            [
              424.0,
              163.0
            ],
            [
              410.0,
              195.0
            ],
            [
              400.0,
              188.0
            ],
            [
              405.0,
              171.0
            ],
            [
              394.0,
              160.0
            ],
            [
              369.0,
              161.0
            ],
            [
              360.0,
              169.0
            ],
            [
              339.0,
              168.0
            ],
            [
              335.0,
              159.0
            ],
            [
              350.0,
              140.0
            ],
            [
              342.0,
              133.0
            ],
            [
              350.0,
              70.0
            ],
            [
              355.0,
              68.0
            ],
            [
              362.0,
              78.0
            ],
            [
              374.0,
              80.0
            ],
            [
              384.0,
              65.0
            ],
            [
              383.0,
              50.0
            ],
            [
              388.0,
              38.0
            ],
            [
              405.0,
              37.0
            ],
            [
              404.0,
              31.0
            ],
            [
              359.0,
              32.0
            ],
            [
              346.0,
              14.0
            ],
            [
              335.0,
              15.0
            ],
            [
              334.0,
              29.0
            ],
            [
              324.0,
              23.0
            ],
            [
              297.0,
              23.0
            ],
            [
              285.0,
              42.0
            ],
            [
              288.0,
              57.0
            ],
            [
              277.0,
              66.0
            ],
            [
              261.0,
              69.0
            ],
            [
              251.0,
              51.0
            ],
            [
              236.0,
              39.0
            ],
            [
              227.0,
              8.0
            ],
            [
              223.0,
              16.0
            ],
            [
              216.0,
              18.0
            ],
            [
              210.0,
              0.0
            ],
            [
              162.0,
              0.0
            ],
            [
              163.0,
              51.0
            ],
            [
              121.0,
              58.0
            ],
            [
              117.0,
              63.0
            ],
            [
              97.0,
              54.0
            ],
            [
              92.0,
              71.0
            ],
            [
              83.0,
              70.0
            ],
            [
              69.0,
              78.0
            ],
            [
              64.0,
              76.0
            ],
            [
              60.0,
              61.0
            ],
            [
              47.0,
              61.0
            ],
            [
              39.0,
              74.0
            ],
            [
              29.0,
              58.0
            ],
            [
              12.0,
              64.0
            ]
          ]
        ]
      },
      "properties": {
        "id": "BLD-012",
        "class": "building",
        "source": "LightUNet",
        "confidence": 0.883,
        "pixel_area": 242423.5,
        "georeferenced": false
      }
    },
    {
      "type": "Feature",
      "id": "BLD-013",
      "geometry": {
        "type": "Polygon",
        "coordinates": [
          [
            [
              70.0,
              0.0
            ],
            [
              61.0,
              0.0
            ],
            [
              58.0,
              5.0
            ],
            [
              45.0,
              0.0
            ],
            [
              40.0,
              9.0
            ],
            [
              45.0,
              24.0
            ],
            [
              27.0,
              29.0
            ],
            [
              29.0,
              44.0
            ],
            [
              48.0,
              53.0
            ],
            [
              55.0,
              51.0
            ],
            [
              80.0,
              21.0
            ],
            [
              80.0,
              17.0
            ],
            [
              70.0,
              22.0
            ],
            [
              62.0,
              16.0
            ],
            [
              76.0,
              7.0
            ],
            [
              70.0,
              0.0
            ]
          ]
        ]
      },
      "properties": {
        "id": "BLD-013",
        "class": "building",
        "source": "LightUNet",
        "confidence": 0.794,
        "pixel_area": 1533.5,
        "georeferenced": false
      }
    }
  ]
}