{
  "type": "FeatureCollection",
  "name": "Inference_SN2_buildings_train_AOI_2_Vegas_PS-RGB_img127_Buildings",
  "properties": {
    "input_image": "SN2_buildings_train_AOI_2_Vegas_PS-RGB_img127.tif",
    "model": "LightUNet",
    "checkpoint": "best_model.pth",
    "inference_time_ms": 93.62,
    "mode": "resize",
    "georeferenced": true,
    "crs": "EPSG:4326",
    "building_count": 18,
    "mean_confidence": 0.916
  },
  "features": [
    {
      "type": "Feature",
      "id": "BLD-001",
      "geometry": {
        "type": "Polygon",
        "coordinates": [
          [
            [
              -115.3039995,
              36.1548441
            ],
            [
              -115.3040076,
              36.1546578
            ],
            [
              -115.3039914,
              36.1546524
            ],
            [
              -115.3039806,
              36.1546659
            ],
            [
              -115.3039509,
              36.1546686
            ],
            [
              -115.3039266,
              36.154647
            ],
            [
              -115.3038888,
              36.1546524
            ],
            [
              -115.3038483,
              36.1547064
            ],
            [
              -115.3038456,
              36.1547577
            ],
            [
              -115.3038645,
              36.1548117
            ],
            [
              -115.3038834,
              36.1548306
            ],
            [
              -115.3039671,
              36.1548279
            ],
            [
              -115.3039995,
              36.1548441
            ]
          ]
        ]
      },
      "properties": {
        "id": "BLD-001",
        "class": "building",
        "source": "LightUNet",
        "confidence": 0.951,
        "pixel_area": 3607.0,
        "georeferenced": true,
        "estimated_ground_area_sqm": 324.6
      }
    },
    {
      "type": "Feature",
      "id": "BLD-002",
      "geometry": {
        "type": "Polygon",
        "coordinates": [
          [
            [
              -115.3033191,
              36.1548603
            ],
            [
              -115.3033245,
              36.1547469
            ],
            [
              -115.3032786,
              36.1546929
            ],
            [
              -115.3032381,
              36.1546794
            ],
            [
              -115.303257,
              36.1546686
            ],
            [
              -115.3032543,
              36.1546578
            ],
            [
              -115.3032165,
              36.1546551
            ],
            [
              -115.3032003,
              36.1546794
            ],
            [
              -115.3031274,
              36.1546767
            ],
            [
              -115.3031247,
              36.1547037
            ],
            [
              -115.3031679,
              36.1547955
            ],
            [
              -115.3031679,
              36.1548414
            ],
            [
              -115.3032489,
              36.1548495
            ],
            [
              -115.3032732,
              36.1548711
            ],
            [
              -115.3033191,
              36.1548603
            ]
          ]
        ]
      },
      "properties": {
        "id": "BLD-002",
        "class": "building",
        "source": "LightUNet",
        "confidence": 0.93,
        "pixel_area": 3995.5,
        "georeferenced": true,
        "estimated_ground_area_sqm": 359.6
      }
    },
    {
      "type": "Feature",
      "id": "BLD-003",
      "geometry": {
        "type": "Polygon",
        "coordinates": [
          [
            [
              -115.3033731,
              36.1548765
            ],
            [
              -115.3034352,
              36.1548765
            ],
            [
              -115.3034811,
              36.1548549
            ],
            [
              -115.3035297,
              36.1548522
            ],
            [
              -115.3035567,
              36.1547523
            ],
            [
              -115.303527,
              36.1546956
            ],
            [
              -115.3035027,
              36.1546848
            ],
            [
              -115.3033812,
              36.1546821
            ],
            [
              -115.3033542,
              36.154701
            ],
            [
              -115.3033731,
              36.1548765
            ]
          ]
        ]
      },
      "properties": {
        "id": "BLD-003",
        "class": "building",
        "source": "LightUNet",
        "confidence": 0.951,
        "pixel_area": 4572.5,
        "georeferenced": true,
        "estimated_ground_area_sqm": 411.5
      }
    },
    {
      "type": "Feature",
      "id": "BLD-004",
      "geometry": {
        "type": "Polygon",
        "coordinates": [
          [
            [
              -115.3030734,
              36.1549413
            ],
            [
              -115.303068,
              36.1549008
            ],
            [
              -115.3030221,
              36.1548846
            ],
            [
              -115.3029708,
              36.1548441
            ],
            [
              -115.3028925,
              36.1548279
            ],
            [
              -115.3028304,
              36.1548522
            ],
            [
              -115.3028304,
              36.1549494
            ],
            [
              -115.3028925,
              36.1550061
            ],
            [
              -115.3029303,
              36.1550115
            ],
            [
              -115.3030248,
              36.1549791
            ],
            [
              -115.3030734,
              36.1549413
            ]
          ]
        ]
      },
      "properties": {
        "id": "BLD-004",
        "class": "building",
        "source": "LightUNet",
        "confidence": 0.944,
        "pixel_area": 4414.5,
        "georeferenced": true,
        "estimated_ground_area_sqm": 397.3
      }
    },
    {
      "type": "Feature",
      "id": "BLD-005",
      "geometry": {
        "type": "Polygon",
        "coordinates": [
          [
            [
              -115.3033677,
              36.1552302
            ],
            [
              -115.3034649,
              36.1552383
            ],
            [
              -115.3036107,
              36.1552275
            ],
            [
              -115.303608,
              36.1551195
            ],
            [
              -115.3035594,
              36.1550898
            ],
            [
              -115.3034271,
              36.1551168
            ],
            [
              -115.3033866,
              36.1551114
            ],
            [
              -115.3033596,
              36.1551762
            ],
            [
              -115.3033677,
              36.1552302
            ]
          ]
        ]
      },
      "properties": {
        "id": "BLD-005",
        "class": "building",
        "source": "LightUNet",
        "confidence": 0.92,
        "pixel_area": 4290.0,
        "georeferenced": true,
        "estimated_ground_area_sqm": 386.1
      }
    },
    {
      "type": "Feature",
      "id": "BLD-006",
      "geometry": {
        "type": "Polygon",
        "coordinates": [
          [
            [
              -115.3037079,
              36.1552383
            ],
            [
              -115.303797,
              36.1552815
            ],
            [
              -115.3038618,
              36.1552815
            ],
            [
              -115.3038942,
              36.1552518
            ],
            [
              -115.3038969,
              36.1551897
            ],
            [
              -115.3039077,
              36.1551843
            ],
            [
              -115.3039239,
              36.155241
            ],
            [
              -115.3039779,
              36.1552599
            ],
            [
              -115.3040076,
              36.1552572
            ],
            [
              -115.3040076,
              36.155079
            ],
            [
              -115.303986,
              36.1550763
            ],
            [
              -115.3039617,
              36.1551222
            ],
            [
              -115.3038996,
              36.1551492
            ],
            [
              -115.3038213,
              36.1551114
            ],
            [
              -115.30377,
              36.1550439
            ],
            [
              -115.3037106,
              36.1550601
            ],
            [
              -115.3036998,
              36.1550763
            ],
            [
              -115.3037052,
              36.1551303
            ],
            [
              -115.3036944,
              36.1551708
            ],
            [
              -115.3037079,
              36.1552383
            ]
          ]
        ]
      },
      "properties": {
        "id": "BLD-006",
        "class": "building",
        "source": "LightUNet",
        "confidence": 0.937,
        "pixel_area": 6602.5,
        "georeferenced": true,
        "estimated_ground_area_sqm": 594.2
      }
    },
    {
      "type": "Feature",
      "id": "BLD-007",
      "geometry": {
        "type": "Polygon",
        "coordinates": [
          [
            [
              -115.3030059,
              36.1553841
            ],
            [
              -115.3030275,
              36.1553166
            ],
            [
              -115.3030518,
              36.1553004
            ],
            [
              -115.3030626,
              36.1552464
            ],
            [
              -115.3030356,
              36.1552302
            ],
            [
              -115.3030491,
              36.1551789
            ],
            [
              -115.3030329,
              36.1551573
            ],
            [
              -115.3030302,
              36.1551033
            ],
            [
              -115.3030113,
              36.155079
            ],
            [
              -115.3029627,
              36.1550628
            ],
            [
              -115.3028655,
              36.1550655
            ],
            [
              -115.302825,
              36.1550979
            ],
            [
              -115.302825,
              36.1551546
            ],
            [
              -115.3028601,
              36.155214
            ],
            [
              -115.3029033,
              36.1552194
            ],
            [
              -115.3029114,
              36.1552383
            ],
            [
              -115.3028493,
              36.1552356
            ],
            [
              -115.3028358,
              36.1552464
            ],
            [
              -115.3028115,
              36.1553058
            ],
            [
              -115.3028115,
              36.1553409
            ],
            [
              -115.3028439,
              36.1553517
            ],
            [
              -115.3028547,
              36.155376
            ],
            [
              -115.302879,
              36.1553652
            ],
            [
              -115.3028952,
              36.1553895
            ],
            [
              -115.3030059,
              36.1553841
            ]
          ]
        ]
      },
      "properties": {
        "id": "BLD-007",
        "class": "building",
        "source": "LightUNet",
        "confidence": 0.945,
        "pixel_area": 8681.0,
        "georeferenced": true,
        "estimated_ground_area_sqm": 781.3
      }
    },
    {
      "type": "Feature",
      "id": "BLD-008",
      "geometry": {
        "type": "Polygon",
        "coordinates": [
          [
            [
              -115.303608,
              36.1553598
            ],
            [
              -115.3035891,
              36.1552788
            ],
            [
              -115.3035378,
              36.1552626
            ],
            [
              -115.3034352,
              36.1552653
            ],
            [
              -115.3034136,
              36.1553301
            ],
            [
              -115.3033812,
              36.1553463
            ],
            [
              -115.3033893,
              36.155403
            ],
            [
              -115.303419,
              36.1554192
            ],
            [
              -115.3035459,
              36.1554192
            ],
            [
              -115.3035702,
              36.1554057
            ],
            [
              -115.3035864,
              36.1553679
            ],
            [
              -115.303608,
              36.1553598
            ]
          ]
        ]
      },
      "properties": {
        "id": "BLD-008",
        "class": "building",
        "source": "LightUNet",
        "confidence": 0.931,
        "pixel_area": 3900.0,
        "georeferenced": true,
        "estimated_ground_area_sqm": 351.0
      }
    },
    {
      "type": "Feature",
      "id": "BLD-009",
      "geometry": {
        "type": "Polygon",
        "coordinates": [
          [
            [
              -115.3028142,
              36.1554705
            ],
            [
              -115.3028277,
              36.1555407
            ],
            [
              -115.3028574,
              36.1555542
            ],
            [
              -115.3030275,
              36.1555407
            ],
            [
              -115.3030788,
              36.1555272
            ],
            [
              -115.3030923,
              36.1555056
            ],
            [
              -115.3030923,
              36.1554732
            ],
            [
              -115.3030491,
              36.1554435
            ],
            [
              -115.3030302,
              36.1554084
            ],
            [
              -115.3028412,
              36.1554219
            ],
            [
              -115.3028142,
              36.1554705
            ]
          ]
        ]
      },
      "properties": {
        "id": "BLD-009",
        "class": "building",
        "source": "LightUNet",
        "confidence": 0.914,
        "pixel_area": 4528.0,
        "georeferenced": true,
        "estimated_ground_area_sqm": 407.5
      }
    },
    {
      "type": "Feature",
      "id": "BLD-010",
      "geometry": {
        "type": "Polygon",
        "coordinates": [
          [
            [
              -115.3033866,
              36.1554759
            ],
            [
              -115.3033866,
              36.1554921
            ],
            [
              -115.3034298,
              36.1555245
            ],
            [
              -115.303446,
              36.1555893
            ],
            [
              -115.3035837,
              36.1555839
            ],
            [
              -115.3036242,
              36.1555461
            ],
            [
              -115.3036215,
              36.1554948
            ],
            [
              -115.3035702,
              36.1554489
            ],
            [
              -115.3034784,
              36.1554408
            ],
            [
              -115.3034325,
              36.1554489
            ],
            [
              -115.3033866,
              36.1554759
            ]
          ]
        ]
      },
      "properties": {
        "id": "BLD-010",
        "class": "building",
        "source": "LightUNet",
        "confidence": 0.942,
        "pixel_area": 3751.0,
        "georeferenced": true,
        "estimated_ground_area_sqm": 337.6
      }
    },
    {
      "type": "Feature",
      "id": "BLD-011",
      "geometry": {
        "type": "Polygon",
        "coordinates": [
          [
            [
              -115.3037862,
              36.1556514
            ],
            [
              -115.3038672,
              36.1556406
            ],
            [
              -115.3039509,
              36.1555839
            ],
            [
              -115.3040076,
              36.155592
            ],
            [
              -115.3040076,
              36.1554354
            ],
            [
              -115.3039563,
              36.1554435
            ],
            [
              -115.3039374,
              36.1554867
            ],
            [
              -115.3038537,
              36.1554408
            ],
            [
              -115.3037673,
              36.1554678
            ],
            [
              -115.3037565,
              36.1555326
            ],
            [
              -115.3037862,
              36.1556514
            ]
          ]
        ]
      },
      "properties": {
        "id": "BLD-011",
        "class": "building",
        "source": "LightUNet",
        "confidence": 0.942,
        "pixel_area": 5521.0,
        "georeferenced": true,
        "estimated_ground_area_sqm": 496.9
      }
    },
    {
      "type": "Feature",
      "id": "BLD-012",
      "geometry": {
        "type": "Polygon",
        "coordinates": [
          [
            [
              -115.3028979,
              36.1556082
            ],
            [
              -115.3028979,
              36.1556757
            ],
            [
              -115.3029303,
              36.155727
            ],
            [
              -115.3029708,
              36.1557324
            ],
            [
              -115.3031139,
              36.1557054
            ],
            [
              -115.3031517,
              36.155673
            ],
            [
              -115.3031355,
              36.155646
            ],
            [
              -115.3030869,
              36.1556298
            ],
            [
              -115.3030167,
              36.1555677
            ],
            [
              -115.3029195,
              36.1555785
            ],
            [
              -115.3028979,
              36.1556082
            ]
          ]
        ]
      },
      "properties": {
        "id": "BLD-012",
        "class": "building",
        "source": "LightUNet",
        "confidence": 0.943,
        "pixel_area": 4065.5,
        "georeferenced": true,
        "estimated_ground_area_sqm": 365.9
      }
    },
    {
      "type": "Feature",
      "id": "BLD-013",
      "geometry": {
        "type": "Polygon",
        "coordinates": [
          [
            [
              -115.3034325,
              36.1556838
            ],
            [
              -115.3035027,
              36.1557702
            ],
            [
              -115.3036458,
              36.1557351
            ],
            [
              -115.3036863,
              36.1557108
            ],
            [
              -115.303662,
              36.1556271
            ],
            [
              -115.303635,
              36.1556271
            ],
            [
              -115.3036134,
              36.1556082
            ],
            [
              -115.3035324,
              36.155619
            ],
            [
              -115.3035351,
              36.1556514
            ],
            [
              -115.3034433,
              36.1556487
            ],
            [
              -115.3034325,
              36.1556838
            ]
          ]
        ]
      },
      "properties": {
        "id": "BLD-013",
        "class": "building",
        "source": "LightUNet",
        "confidence": 0.899,
        "pixel_area": 3714.5,
        "georeferenced": true,
        "estimated_ground_area_sqm": 334.3
      }
    },
    {
      "type": "Feature",
      "id": "BLD-014",
      "geometry": {
        "type": "Polygon",
        "coordinates": [
          [
            [
              -115.3035648,
              36.1561617
            ],
            [
              -115.3036242,
              36.1561725
            ],
            [
              -115.3036701,
              36.1561536
            ],
            [
              -115.303689,
              36.1561158
            ],
            [
              -115.3037214,
              36.1560888
            ],
            [
              -115.3037052,
              36.1560132
            ],
            [
              -115.3037484,
              36.1560726
            ],
            [
              -115.3037565,
              36.1561185
            ],
            [
              -115.303851,
              36.1561185
            ],
            [
              -115.3039158,
              36.1560969
            ],
            [
              -115.3039347,
              36.1560672
            ],
            [
              -115.3039131,
              36.1560105
            ],
            [
              -115.3039104,
              36.1559619
            ],
            [
              -115.3039671,
              36.1560672
            ],
            [
              -115.3040076,
              36.1560753
            ],
            [
              -115.3040076,
              36.1558863
            ],
            [
              -115.3039563,
              36.1558809
            ],
            [
              -115.3039104,
              36.1558944
            ],
            [
              -115.3039104,
              36.1559484
            ],
            [
              -115.3038537,
              36.155916
            ],
            [
              -115.3038132,
              36.1559214
            ],
            [
              -115.3037673,
              36.1558836
            ],
            [
              -115.3037052,
              36.1559052
            ],
            [
              -115.303689,
              36.1559322
            ],
            [
              -115.3036998,
              36.1559862
            ],
            [
              -115.3036296,
              36.1559673
            ],
            [
              -115.3035459,
              36.1560591
            ],
            [
              -115.3035378,
              36.1560888
            ],
            [
              -115.3035648,
              36.1561617
            ]
          ]
        ]
      },
      "properties": {
        "id": "BLD-014",
        "class": "building",
        "source": "LightUNet",
        "confidence": 0.935,
        "pixel_area": 11137.5,
        "georeferenced": true,
        "estimated_ground_area_sqm": 1002.4
      }
    },
    {
      "type": "Feature",
      "id": "BLD-015",
      "geometry": {
        "type": "Polygon",
        "coordinates": [
          [
            [
              -115.3035405,
              36.1563561
            ],
            [
              -115.3035459,
              36.1563318
            ],
            [
              -115.3035243,
              36.1563102
            ],
            [
              -115.3035162,
              36.1563372
            ],
            [
              -115.3035405,
              36.1563561
            ]
          ]
        ]
      },
      "properties": {
        "id": "BLD-015",
        "class": "building",
        "source": "LightUNet",
        "confidence": 0.626,
        "pixel_area": 142.5,
        "georeferenced": true,
        "estimated_ground_area_sqm": 12.8
      }
    },
    {
      "type": "Feature",
      "id": "BLD-016",
      "geometry": {
        "type": "Polygon",
        "coordinates": [
          [
            [
              -115.303365,
              36.1563291
            ],
            [
              -115.3033758,
              36.1562859
            ],
            [
              -115.3033623,
              36.156267
            ],
            [
              -115.3033083,
              36.1562562
            ],
            [
              -115.303284,
              36.1562157
            ],
            [
              -115.3032381,
              36.1562103
            ],
            [
              -115.3032759,
              36.1561833
            ],
            [
              -115.3032867,
              36.1561536
            ],
            [
              -115.3031706,
              36.1560618
            ],
            [
              -115.3031625,
              36.1560105
            ],
            [
              -115.3031706,
              36.1559727
            ],
            [
              -115.3031895,
              36.1559538
            ],
            [
              -115.3031841,
              36.1559133
            ],
            [
              -115.3031679,
              36.1558944
            ],
            [
              -115.3031058,
              36.1558863
            ],
            [
              -115.3031652,
              36.1558674
            ],
            [
              -115.3031733,
              36.155835
            ],
            [
              -115.3031247,
              36.1557864
            ],
            [
              -115.303122,
              36.1557621
            ],
            [
              -115.303095,
              36.1557432
            ],
            [
              -115.3030302,
              36.1557432
            ],
            [
              -115.3029249,
              36.1557783
            ],
            [
              -115.3029168,
              36.1557972
            ],
            [
              -115.3029438,
              36.1558485
            ],
            [
              -115.3030194,
              36.1558917
            ],
            [
              -115.3031004,
              36.155889
            ],
            [
              -115.3029951,
              36.1559268
            ],
            [
              -115.3030032,
              36.1560213
            ],
            [
              -115.3030383,
              36.1560402
            ],
            [
              -115.3030491,
              36.1560726
            ],
            [
              -115.3030383,
              36.1561536
            ],
            [
              -115.3030572,
              36.1561779
            ],
            [
              -115.3031139,
              36.1561941
            ],
            [
              -115.3031382,
              36.1562211
            ],
            [
              -115.3031841,
              36.1562184
            ],
            [
              -115.3031625,
              36.1562481
            ],
            [
              -115.3031247,
              36.1562508
            ],
            [
              -115.303068,
              36.1562805
            ],
            [
              -115.3030842,
              36.1563345
            ],
            [
              -115.3031139,
              36.1563453
            ],
            [
              -115.3031328,
              36.1563777
            ],
            [
              -115.3032516,
              36.1563777
            ],
            [
              -115.303284,
              36.156348
            ],
            [
              -115.303365,
              36.1563291
            ]
          ]
        ]
      },
      "properties": {
        "id": "BLD-016",
        "class": "building",
        "source": "LightUNet",
        "confidence": 0.929,
        "pixel_area": 16186.0,
        "georeferenced": true,
        "estimated_ground_area_sqm": 1456.7
      }
    },
    {
      "type": "Feature",
      "id": "BLD-017",
      "geometry": {
        "type": "Polygon",
        "coordinates": [
          [
            [
              -115.3037376,
              36.1563777
            ],
            [
              -115.3037295,
              36.1562967
            ],
            [
              -115.3036917,
              36.1562697
            ],
            [
              -115.3036215,
              36.1562832
            ],
            [
              -115.3036107,
              36.1563264
            ],
            [
              -115.3036377,
              36.1563777
            ],
            [
              -115.3037376,
              36.1563777
            ]
          ]
        ]
      },
      "properties": {
        "id": "BLD-017",
        "class": "building",
        "source": "LightUNet",
        "confidence": 0.921,
        "pixel_area": 1574.0,
        "georeferenced": true,
        "estimated_ground_area_sqm": 141.7
      }
    },
    {
      "type": "Feature",
      "id": "BLD-018",
      "geometry": {
        "type": "Polygon",
        "coordinates": [
          [
            [
              -115.3040076,
              36.1563777
            ],
            [
              -115.3040076,
              36.1562103
            ],
            [
              -115.3039239,
              36.1562076
            ],
            [
              -115.3039077,
              36.1562211
            ],
            [
              -115.303905,
              36.1562562
            ],
            [
              -115.3038483,
              36.1562454
            ],
            [
              -115.3038348,
              36.1562616
            ],
            [
              -115.3037889,
              36.1562697
            ],
            [
              -115.3037835,
              36.1563075
            ],
            [
              -115.3038186,
              36.1563777
            ],
            [
              -115.3039347,
              36.1563777
            ],
            [
              -115.303932,
              36.156321
            ],
            [
              -115.3039482,
              36.1563291
            ],
            [
              -115.3039617,
              36.1563777
            ],
            [
              -115.3040076,
              36.1563777
            ]
          ]
        ]
      },
      "properties": {
        "id": "BLD-018",
        "class": "building",
        "source": "LightUNet",
        "confidence": 0.928,
        "pixel_area": 4053.0,
        "georeferenced": true,
        "estimated_ground_area_sqm": 364.8
      }
    }
  ],
  "crs": {
    "type": "name",
    "properties": {
      "name": "EPSG:4326"
    }
  }
}