{
  "type": "FeatureCollection",
  "name": "Inference_SN2_buildings_train_AOI_2_Vegas_PS-RGB_img1006_Buildings",
  "properties": {
    "input_image": "SN2_buildings_train_AOI_2_Vegas_PS-RGB_img1006.tif",
    "model": "LightUNet",
    "checkpoint": "best_model.pth",
    "inference_time_ms": 97.03,
    "mode": "resize",
    "georeferenced": true,
    "crs": "EPSG:4326",
    "building_count": 21,
    "mean_confidence": 0.856
  },
  "features": [
    {
      "type": "Feature",
      "id": "BLD-001",
      "geometry": {
        "type": "Polygon",
        "coordinates": [
          [
            [
              -115.278984,
              36.1862397
            ],
            [
              -115.2789732,
              36.1862235
            ],
            [
              -115.2789327,
              36.1862316
            ],
            [
              -115.2789462,
              36.1862478
            ],
            [
              -115.278984,
              36.1862397
            ]
          ]
        ]
      },
      "properties": {
        "id": "BLD-001",
        "class": "building",
        "source": "LightUNet",
        "confidence": 0.699,
        "pixel_area": 144.0,
        "georeferenced": true,
        "estimated_ground_area_sqm": 13.0
      }
    },
    {
      "type": "Feature",
      "id": "BLD-002",
      "geometry": {
        "type": "Polygon",
        "coordinates": [
          [
            [
              -115.2782847,
              36.186399
            ],
            [
              -115.2782793,
              36.1862451
            ],
            [
              -115.2781794,
              36.1862478
            ],
            [
              -115.2781578,
              36.186264
            ],
            [
              -115.2781551,
              36.1863477
            ],
            [
              -115.2782847,
              36.186399
            ]
          ]
        ]
      },
      "properties": {
        "id": "BLD-002",
        "class": "building",
        "source": "LightUNet",
        "confidence": 0.861,
        "pixel_area": 2306.5,
        "georeferenced": true,
        "estimated_ground_area_sqm": 207.6
      }
    },
    {
      "type": "Feature",
      "id": "BLD-003",
      "geometry": {
        "type": "Polygon",
        "coordinates": [
          [
            [
              -115.2779202,
              36.1866231
            ],
            [
              -115.2779931,
              36.1866069
            ],
            [
              -115.278039,
              36.1865313
            ],
            [
              -115.2780309,
              36.1863396
            ],
            [
              -115.2780093,
              36.1862748
            ],
            [
              -115.2780228,
              36.1862559
            ],
            [
              -115.2780201,
              36.1862154
            ],
            [
              -115.2779499,
              36.1862154
            ],
            [
              -115.2779445,
              36.1862532
            ],
            [
              -115.2778959,
              36.1862856
            ],
            [
              -115.2778905,
              36.1865313
            ],
            [
              -115.277904,
              36.1866042
            ],
            [
              -115.2779202,
              36.1866231
            ]
          ]
        ]
      },
      "properties": {
        "id": "BLD-003",
        "class": "building",
        "source": "LightUNet",
        "confidence": 0.874,
        "pixel_area": 6826.5,
        "georeferenced": true,
        "estimated_ground_area_sqm": 614.4
      }
    },
    {
      "type": "Feature",
      "id": "BLD-004",
      "geometry": {
        "type": "Polygon",
        "coordinates": [
          [
            [
              -115.2777177,
              36.1866285
            ],
            [
              -115.2778068,
              36.1866285
            ],
            [
              -115.2778311,
              36.1866204
            ],
            [
              -115.2778419,
              36.1866015
            ],
            [
              -115.2778446,
              36.1864638
            ],
            [
              -115.277823,
              36.1863369
            ],
            [
              -115.2777825,
              36.1863558
            ],
            [
              -115.2777123,
              36.1863558
            ],
            [
              -115.2777015,
              36.1863666
            ],
            [
              -115.2776988,
              36.1864422
            ],
            [
              -115.2777123,
              36.1864557
            ],
            [
              -115.2777123,
              36.1864989
            ],
            [
              -115.2776907,
              36.1865664
            ],
            [
              -115.2777015,
              36.186615
            ],
            [
              -115.2777177,
              36.1866285
            ]
          ]
        ]
      },
      "properties": {
        "id": "BLD-004",
        "class": "building",
        "source": "LightUNet",
        "confidence": 0.879,
        "pixel_area": 5193.5,
        "georeferenced": true,
        "estimated_ground_area_sqm": 467.4
      }
    },
    {
      "type": "Feature",
      "id": "BLD-005",
      "geometry": {
        "type": "Polygon",
        "coordinates": [
          [
            [
              -115.2782874,
              36.1866339
            ],
            [
              -115.2782955,
              36.1865637
            ],
            [
              -115.2782847,
              36.1864854
            ],
            [
              -115.2782739,
              36.1864827
            ],
            [
              -115.2782415,
              36.1865448
            ],
            [
              -115.2782523,
              36.1866123
            ],
            [
              -115.2782874,
              36.1866339
            ]
          ]
        ]
      },
      "properties": {
        "id": "BLD-005",
        "class": "building",
        "source": "LightUNet",
        "confidence": 0.694,
        "pixel_area": 774.0,
        "georeferenced": true,
        "estimated_ground_area_sqm": 69.7
      }
    },
    {
      "type": "Feature",
      "id": "BLD-006",
      "geometry": {
        "type": "Polygon",
        "coordinates": [
          [
            [
              -115.2776853,
              36.1869282
            ],
            [
              -115.2777123,
              36.1869255
            ],
            [
              -115.2777366,
              36.1868823
            ],
            [
              -115.2777447,
              36.1868418
            ],
            [
              -115.2777177,
              36.1868256
            ],
            [
              -115.2776853,
              36.1868256
            ],
            [
              -115.2776853,
              36.1869282
            ]
          ]
        ]
      },
      "properties": {
        "id": "BLD-006",
        "class": "building",
        "source": "LightUNet",
        "confidence": 0.872,
        "pixel_area": 639.5,
        "georeferenced": true,
        "estimated_ground_area_sqm": 57.6
      }
    },
    {
      "type": "Feature",
      "id": "BLD-007",
      "geometry": {
        "type": "Polygon",
        "coordinates": [
          [
            [
              -115.277958,
              36.1868823
            ],
            [
              -115.2779931,
              36.1869255
            ],
            [
              -115.2780579,
              36.1869363
            ],
            [
              -115.2781686,
              36.1869336
            ],
            [
              -115.2781902,
              36.1869174
            ],
            [
              -115.2782955,
              36.1869255
            ],
            [
              -115.2783198,
              36.1868958
            ],
            [
              -115.2783225,
              36.1868418
            ],
            [
              -115.2782982,
              36.1868175
            ],
            [
              -115.2779877,
              36.1868202
            ],
            [
              -115.2779553,
              36.1868337
            ],
            [
              -115.277958,
              36.1868823
            ]
          ]
        ]
      },
      "properties": {
        "id": "BLD-007",
        "class": "building",
        "source": "LightUNet",
        "confidence": 0.946,
        "pixel_area": 5246.5,
        "georeferenced": true,
        "estimated_ground_area_sqm": 472.2
      }
    },
    {
      "type": "Feature",
      "id": "BLD-008",
      "geometry": {
        "type": "Polygon",
        "coordinates": [
          [
            [
              -115.2788166,
              36.1870011
            ],
            [
              -115.27893,
              36.1870038
            ],
            [
              -115.2789543,
              36.186993
            ],
            [
              -115.2789624,
              36.1869687
            ],
            [
              -115.2790488,
              36.1870011
            ],
            [
              -115.2791406,
              36.1869957
            ],
            [
              -115.2791703,
              36.1869822
            ],
            [
              -115.2793134,
              36.1869957
            ],
            [
              -115.2794295,
              36.1869876
            ],
            [
              -115.2794376,
              36.1868688
            ],
            [
              -115.279389,
              36.1868526
            ],
            [
              -115.279362,
              36.1868175
            ],
            [
              -115.2792648,
              36.1868175
            ],
            [
              -115.2792378,
              36.1867905
            ],
            [
              -115.2792162,
              36.1867986
            ],
            [
              -115.2792216,
              36.1868202
            ],
            [
              -115.2792,
              36.1868445
            ],
            [
              -115.2791568,
              36.1868256
            ],
            [
              -115.2791595,
              36.1867203
            ],
            [
              -115.2791811,
              36.1866609
            ],
            [
              -115.2792324,
              36.1866798
            ],
            [
              -115.2792756,
              36.1866609
            ],
            [
              -115.2793593,
              36.1866663
            ],
            [
              -115.279362,
              36.1866393
            ],
            [
              -115.279335,
              36.1866042
            ],
            [
              -115.2793323,
              36.1865556
            ],
            [
              -115.2793593,
              36.1865529
            ],
            [
              -115.2793404,
              36.186507
            ],
            [
              -115.2793242,
              36.1864935
            ],
            [
              -115.2792756,
              36.1864881
            ],
            [
              -115.2792621,
              36.1865313
            ],
            [
              -115.2792729,
              36.186615
            ],
            [
              -115.2792594,
              36.1866258
            ],
            [
              -115.2792243,
              36.186507
            ],
            [
              -115.2791649,
              36.1865205
            ],
            [
              -115.2790893,
              36.186453
            ],
            [
              -115.2790596,
              36.1864773
            ],
            [
              -115.279011,
              36.1864881
            ],
            [
              -115.2790137,
              36.1865286
            ],
            [
              -115.2790461,
              36.1865421
            ],
            [
              -115.2790677,
              36.1865232
            ],
            [
              -115.2790866,
              36.1865475
            ],
            [
              -115.2790461,
              36.1865799
            ],
            [
              -115.2789813,
              36.1865934
            ],
            [
              -115.2789813,
              36.1867473
            ],
            [
              -115.2790434,
              36.1867797
            ],
            [
              -115.2790704,
              36.1867635
            ],
            [
              -115.2791163,
              36.1867662
            ],
            [
              -115.2791379,
              36.1867878
            ],
            [
              -115.2791406,
              36.1868148
            ],
            [
              -115.2791244,
              36.1868256
            ],
            [
              -115.2790947,
              36.1868013
            ],
            [
              -115.2790542,
              36.186831
            ],
            [
              -115.2789948,
              36.1868229
            ],
            [
              -115.2789543,
              36.1868391
            ],
            [
              -115.27893,
              36.1868283
            ],
            [
              -115.2789192,
              36.1867959
            ],
            [
              -115.2789165,
              36.1866528
            ],
            [
              -115.2789003,
              36.1865826
            ],
            [
              -115.2789057,
              36.1865043
            ],
            [
              -115.2788814,
              36.1863828
            ],
            [
              -115.2788247,
              36.1864233
            ],
            [
              -115.2788328,
              36.1865016
            ],
            [
              -115.2787977,
              36.1864611
            ],
            [
              -115.2787815,
              36.1864611
            ],
            [
              -115.278768,
              36.1864746
            ],
            [
              -115.2787626,
              36.1865178
            ],
            [
              -115.2787842,
              36.1865367
            ],
            [
              -115.2788085,
              36.1865367
            ],
            [
              -115.2788112,
              36.1865637
            ],
            [
              -115.2788382,
              36.1865745
            ],
            [
              -115.2788436,
              36.1865583
            ],
            [
              -115.2788139,
              36.1865394
            ],
            [
              -115.2788355,
              36.1865043
            ],
            [
              -115.2788571,
              36.1865637
            ],
            [
              -115.278876,
              36.1865637
            ],
            [
              -115.2788949,
              36.1865934
            ],
            [
              -115.2788895,
              36.186615
            ],
            [
              -115.2788652,
              36.1865961
            ],
            [
              -115.2787842,
              36.1865961
            ],
            [
              -115.2787788,
              36.1866096
            ],
            [
              -115.2788004,
              36.1867608
            ],
            [
              -115.2787842,
              36.1868472
            ],
            [
              -115.2788031,
              36.1868688
            ],
            [
              -115.2788166,
              36.1869282
            ],
            [
              -115.2788166,
              36.1870011
            ]
          ]
        ]
      },
      "properties": {
        "id": "BLD-008",
        "class": "building",
        "source": "LightUNet",
        "confidence": 0.87,
        "pixel_area": 30978.0,
        "georeferenced": true,
        "estimated_ground_area_sqm": 2788.0
      }
    },
    {
      "type": "Feature",
      "id": "BLD-009",
      "geometry": {
        "type": "Polygon",
        "coordinates": [
          [
            [
              -115.2777285,
              36.1871037
            ],
            [
              -115.2777474,
              36.1870578
            ],
            [
              -115.2777393,
              36.1870119
            ],
            [
              -115.2776907,
              36.1869984
            ],
            [
              -115.2776853,
              36.1871037
            ],
            [
              -115.2777285,
              36.1871037
            ]
          ]
        ]
      },
      "properties": {
        "id": "BLD-009",
        "class": "building",
        "source": "LightUNet",
        "confidence": 0.906,
        "pixel_area": 785.0,
        "georeferenced": true,
        "estimated_ground_area_sqm": 70.6
      }
    },
    {
      "type": "Feature",
      "id": "BLD-010",
      "geometry": {
        "type": "Polygon",
        "coordinates": [
          [
            [
              -115.2782226,
              36.1872549
            ],
            [
              -115.2782685,
              36.1872549
            ],
            [
              -115.2783036,
              36.1872306
            ],
            [
              -115.2783036,
              36.1870821
            ],
            [
              -115.2783225,
              36.1870416
            ],
            [
              -115.2783036,
              36.1869984
            ],
            [
              -115.2782793,
              36.1869903
            ],
            [
              -115.2781875,
              36.1870092
            ],
            [
              -115.2781713,
              36.1870281
            ],
            [
              -115.2781767,
              36.1872333
            ],
            [
              -115.2782226,
              36.1872549
            ]
          ]
        ]
      },
      "properties": {
        "id": "BLD-010",
        "class": "building",
        "source": "LightUNet",
        "confidence": 0.947,
        "pixel_area": 4493.0,
        "georeferenced": true,
        "estimated_ground_area_sqm": 404.4
      }
    },
    {
      "type": "Feature",
      "id": "BLD-011",
      "geometry": {
        "type": "Polygon",
        "coordinates": [
          [
            [
              -115.2776853,
              36.1872576
            ],
            [
              -115.2777231,
              36.1872522
            ],
            [
              -115.2777474,
              36.1872144
            ],
            [
              -115.2777501,
              36.187182
            ],
            [
              -115.2777312,
              36.1871577
            ],
            [
              -115.2776853,
              36.187155
            ],
            [
              -115.2776853,
              36.1872576
            ]
          ]
        ]
      },
      "properties": {
        "id": "BLD-011",
        "class": "building",
        "source": "LightUNet",
        "confidence": 0.903,
        "pixel_area": 762.5,
        "georeferenced": true,
        "estimated_ground_area_sqm": 68.6
      }
    },
    {
      "type": "Feature",
      "id": "BLD-012",
      "geometry": {
        "type": "Polygon",
        "coordinates": [
          [
            [
              -115.278066,
              36.1872549
            ],
            [
              -115.2780876,
              36.187236
            ],
            [
              -115.2781011,
              36.1871496
            ],
            [
              -115.2780849,
              36.1871307
            ],
            [
              -115.2780876,
              36.1870362
            ],
            [
              -115.2780687,
              36.1870119
            ],
            [
              -115.2779769,
              36.1869957
            ],
            [
              -115.277958,
              36.1870173
            ],
            [
              -115.2779661,
              36.1871982
            ],
            [
              -115.2779283,
              36.1872333
            ],
            [
              -115.277958,
              36.1872333
            ],
            [
              -115.2779823,
              36.1872549
            ],
            [
              -115.278066,
              36.1872549
            ]
          ]
        ]
      },
      "properties": {
        "id": "BLD-012",
        "class": "building",
        "source": "LightUNet",
        "confidence": 0.938,
        "pixel_area": 4399.5,
        "georeferenced": true,
        "estimated_ground_area_sqm": 396.0
      }
    },
    {
      "type": "Feature",
      "id": "BLD-013",
      "geometry": {
        "type": "Polygon",
        "coordinates": [
          [
            [
              -115.278066,
              36.1874304
            ],
            [
              -115.278066,
              36.1873845
            ],
            [
              -115.2780498,
              36.1873683
            ],
            [
              -115.2777258,
              36.1873521
            ],
            [
              -115.2777069,
              36.1873656
            ],
            [
              -115.277715,
              36.187425
            ],
            [
              -115.2777393,
              36.1874574
            ],
            [
              -115.277796,
              36.1874736
            ],
            [
              -115.278039,
              36.1874709
            ],
            [
              -115.278066,
              36.1874304
            ]
          ]
        ]
      },
      "properties": {
        "id": "BLD-013",
        "class": "building",
        "source": "LightUNet",
        "confidence": 0.942,
        "pixel_area": 5169.5,
        "georeferenced": true,
        "estimated_ground_area_sqm": 465.3
      }
    },
    {
      "type": "Feature",
      "id": "BLD-014",
      "geometry": {
        "type": "Polygon",
        "coordinates": [
          [
            [
              -115.2780633,
              36.1876032
            ],
            [
              -115.2780606,
              36.1875627
            ],
            [
              -115.2780444,
              36.1875411
            ],
            [
              -115.2777717,
              36.1875384
            ],
            [
              -115.2777717,
              36.1876194
            ],
            [
              -115.2777987,
              36.1876437
            ],
            [
              -115.2780417,
              36.1876437
            ],
            [
              -115.2780633,
              36.1876032
            ]
          ]
        ]
      },
      "properties": {
        "id": "BLD-014",
        "class": "building",
        "source": "LightUNet",
        "confidence": 0.947,
        "pixel_area": 4141.0,
        "georeferenced": true,
        "estimated_ground_area_sqm": 372.7
      }
    },
    {
      "type": "Feature",
      "id": "BLD-015",
      "geometry": {
        "type": "Polygon",
        "coordinates": [
          [
            [
              -115.2783036,
              36.1876653
            ],
            [
              -115.2783387,
              36.187641
            ],
            [
              -115.2783144,
              36.1873818
            ],
            [
              -115.2782874,
              36.1873629
            ],
            [
              -115.2781983,
              36.1873683
            ],
            [
              -115.2781848,
              36.1873818
            ],
            [
              -115.2781848,
              36.187479
            ],
            [
              -115.2782145,
              36.1876032
            ],
            [
              -115.2782118,
              36.1876437
            ],
            [
              -115.2782442,
              36.1876653
            ],
            [
              -115.2783036,
              36.1876653
            ]
          ]
        ]
      },
      "properties": {
        "id": "BLD-015",
        "class": "building",
        "source": "LightUNet",
        "confidence": 0.953,
        "pixel_area": 5219.0,
        "georeferenced": true,
        "estimated_ground_area_sqm": 469.7
      }
    },
    {
      "type": "Feature",
      "id": "BLD-016",
      "geometry": {
        "type": "Polygon",
        "coordinates": [
          [
            [
              -115.2779499,
              36.1879056
            ],
            [
              -115.2779472,
              36.1878624
            ],
            [
              -115.2778959,
              36.1878705
            ],
            [
              -115.277931,
              36.1879083
            ],
            [
              -115.2779499,
              36.1879056
            ]
          ]
        ]
      },
      "properties": {
        "id": "BLD-016",
        "class": "building",
        "source": "LightUNet",
        "confidence": 0.666,
        "pixel_area": 230.5,
        "georeferenced": true,
        "estimated_ground_area_sqm": 20.7
      }
    },
    {
      "type": "Feature",
      "id": "BLD-017",
      "geometry": {
        "type": "Polygon",
        "coordinates": [
          [
            [
              -115.278822,
              36.1879569
            ],
            [
              -115.2788571,
              36.1879515
            ],
            [
              -115.2788652,
              36.187884
            ],
            [
              -115.2788517,
              36.1878489
            ],
            [
              -115.2788301,
              36.1878705
            ],
            [
              -115.2788382,
              36.187938
            ],
            [
              -115.2788139,
              36.1879488
            ],
            [
              -115.278822,
              36.1879569
            ]
          ]
        ]
      },
      "properties": {
        "id": "BLD-017",
        "class": "building",
        "source": "LightUNet",
        "confidence": 0.595,
        "pixel_area": 421.5,
        "georeferenced": true,
        "estimated_ground_area_sqm": 37.9
      }
    },
    {
      "type": "Feature",
      "id": "BLD-018",
      "geometry": {
        "type": "Polygon",
        "coordinates": [
          [
            [
              -115.2779553,
              36.1879542
            ],
            [
              -115.2779283,
              36.1879353
            ],
            [
              -115.2779121,
              36.1879434
            ],
            [
              -115.2779202,
              36.1879596
            ],
            [
              -115.2779553,
              36.1879542
            ]
          ]
        ]
      },
      "properties": {
        "id": "BLD-018",
        "class": "building",
        "source": "LightUNet",
        "confidence": 0.625,
        "pixel_area": 118.0,
        "georeferenced": true,
        "estimated_ground_area_sqm": 10.6
      }
    },
    {
      "type": "Feature",
      "id": "BLD-019",
      "geometry": {
        "type": "Polygon",
        "coordinates": [
          [
            [
              -115.2778203,
              36.1879677
            ],
            [
              -115.2778392,
              36.1879029
            ],
            [
              -115.2778446,
              36.187722
            ],
            [
              -115.2778122,
              36.1877004
            ],
            [
              -115.2777204,
              36.1877031
            ],
            [
              -115.2777042,
              36.1877247
            ],
            [
              -115.2776988,
              36.1878651
            ],
            [
              -115.2777123,
              36.1878894
            ],
            [
              -115.2777069,
              36.1879677
            ],
            [
              -115.2778203,
              36.1879677
            ]
          ]
        ]
      },
      "properties": {
        "id": "BLD-019",
        "class": "building",
        "source": "LightUNet",
        "confidence": 0.952,
        "pixel_area": 4861.5,
        "georeferenced": true,
        "estimated_ground_area_sqm": 437.5
      }
    },
    {
      "type": "Feature",
      "id": "BLD-020",
      "geometry": {
        "type": "Polygon",
        "coordinates": [
          [
            [
              -115.2781227,
              36.1879677
            ],
            [
              -115.2781362,
              36.1879191
            ],
            [
              -115.2781362,
              36.1877355
            ],
            [
              -115.2781038,
              36.1877112
            ],
            [
              -115.2780147,
              36.1877031
            ],
            [
              -115.2780012,
              36.1877139
            ],
            [
              -115.278012,
              36.1877814
            ],
            [
              -115.2779985,
              36.1878327
            ],
            [
              -115.2779985,
              36.1879623
            ],
            [
              -115.2781227,
              36.1879677
            ]
          ]
        ]
      },
      "properties": {
        "id": "BLD-020",
        "class": "building",
        "source": "LightUNet",
        "confidence": 0.954,
        "pixel_area": 4692.0,
        "georeferenced": true,
        "estimated_ground_area_sqm": 422.3
      }
    },
    {
      "type": "Feature",
      "id": "BLD-021",
      "geometry": {
        "type": "Polygon",
        "coordinates": [
          [
            [
              -115.2783333,
              36.1879677
            ],
            [
              -115.2783549,
              36.1877544
            ],
            [
              -115.2783306,
              36.1877301
            ],
            [
              -115.2782253,
              36.1877301
            ],
            [
              -115.2782118,
              36.1877463
            ],
            [
              -115.2782064,
              36.1878138
            ],
            [
              -115.2782172,
              36.1879677
            ],
            [
              -115.2783333,
              36.1879677
            ]
          ]
        ]
      },
      "properties": {
        "id": "BLD-021",
        "class": "building",
        "source": "LightUNet",
        "confidence": 0.955,
        "pixel_area": 4308.5,
        "georeferenced": true,
        "estimated_ground_area_sqm": 387.8
      }
    }
  ],
  "crs": {
    "type": "name",
    "properties": {
      "name": "EPSG:4326"
    }
  }
}