{
  "type": "FeatureCollection",
  "name": "SpaceNet2_Vegas_Benchmark_WORST_Tile1006",
  "crs": {
    "type": "name",
    "properties": {
      "name": "urn:ogc:def:crs:OGC:1.3:CRS84"
    }
  },
  "properties": {
    "tile_id": "1006",
    "benchmark_category": "WORST",
    "dice": 0.6649,
    "iou": 0.4981,
    "total_polygons": 19
  },
  "features": [
    {
      "type": "Feature",
      "id": "BLD-WORST-002",
      "geometry": {
        "type": "Polygon",
        "coordinates": [
          [
            [
              -115.2782859,
              36.1863978
            ],
            [
              -115.2782859,
              36.1862538
            ],
            [
              -115.2781762,
              36.1862538
            ],
            [
              -115.2781556,
              36.1862744
            ],
            [
              -115.2781556,
              36.186343
            ],
            [
              -115.278183,
              36.1863635
            ],
            [
              -115.2782859,
              36.1863978
            ]
          ]
        ]
      },
      "properties": {
        "id": "BLD-WORST-002",
        "class": "building",
        "source": "LightUNet",
        "tile_id": "1006",
        "confidence": 0.871,
        "pixel_area": 333.5,
        "estimated_ground_area_sqm": 193.5
      }
    },
    {
      "type": "Feature",
      "id": "BLD-WORST-003",
      "geometry": {
        "type": "Polygon",
        "coordinates": [
          [
            [
              -115.2779225,
              36.186624
            ],
            [
              -115.2779911,
              36.1866103
            ],
            [
              -115.2780391,
              36.1865418
            ],
            [
              -115.2780322,
              36.186343
            ],
            [
              -115.2780117,
              36.1862881
            ],
            [
              -115.2780254,
              36.1862538
            ],
            [
              -115.2780185,
              36.1862196
            ],
            [
              -115.2779568,
              36.1862196
            ],
            [
              -115.27795,
              36.1862538
            ],
            [
              -115.277902,
              36.1862813
            ],
            [
              -115.2778951,
              36.1865349
            ],
            [
              -115.277902,
              36.1865898
            ],
            [
              -115.2779225,
              36.186624
            ]
          ]
        ]
      },
      "properties": {
        "id": "BLD-WORST-003",
        "class": "building",
        "source": "LightUNet",
        "tile_id": "1006",
        "confidence": 0.877,
        "pixel_area": 1019.0,
        "estimated_ground_area_sqm": 591.2
      }
    },
    {
      "type": "Feature",
      "id": "BLD-WORST-004",
      "geometry": {
        "type": "Polygon",
        "coordinates": [
          [
            [
              -115.2777237,
              36.1866309
            ],
            [
              -115.277806,
              36.1866309
            ],
            [
              -115.2778403,
              36.1866103
            ],
            [
              -115.2778471,
              36.1865212
            ],
            [
              -115.2778266,
              36.186343
            ],
            [
              -115.2777032,
              36.1863704
            ],
            [
              -115.2777169,
              36.1865006
            ],
            [
              -115.2776895,
              36.1865692
            ],
            [
              -115.2777032,
              36.186576
            ],
            [
              -115.2777032,
              36.1866103
            ],
            [
              -115.2777237,
              36.1866309
            ]
          ]
        ]
      },
      "properties": {
        "id": "BLD-WORST-004",
        "class": "building",
        "source": "LightUNet",
        "tile_id": "1006",
        "confidence": 0.885,
        "pixel_area": 767.5,
        "estimated_ground_area_sqm": 445.3
      }
    },
    {
      "type": "Feature",
      "id": "BLD-WORST-005",
      "geometry": {
        "type": "Polygon",
        "coordinates": [
          [
            [
              -115.2782927,
              36.1866309
            ],
            [
              -115.2782859,
              36.1864869
            ],
            [
              -115.2782722,
              36.1864869
            ],
            [
              -115.2782447,
              36.186576
            ],
            [
              -115.2782585,
              36.1866172
            ],
            [
              -115.2782927,
              36.1866309
            ]
          ]
        ]
      },
      "properties": {
        "id": "BLD-WORST-005",
        "class": "building",
        "source": "LightUNet",
        "tile_id": "1006",
        "confidence": 0.699,
        "pixel_area": 106.5,
        "estimated_ground_area_sqm": 61.8
      }
    },
    {
      "type": "Feature",
      "id": "BLD-WORST-006",
      "geometry": {
        "type": "Polygon",
        "coordinates": [
          [
            [
              -115.2777169,
              36.1869257
            ],
            [
              -115.2777443,
              36.1868434
            ],
            [
              -115.2777237,
              36.1868297
            ],
            [
              -115.2776895,
              36.1868297
            ],
            [
              -115.2776895,
              36.1869257
            ],
            [
              -115.2777169,
              36.1869257
            ]
          ]
        ]
      },
      "properties": {
        "id": "BLD-WORST-006",
        "class": "building",
        "source": "LightUNet",
        "tile_id": "1006",
        "confidence": 0.879,
        "pixel_area": 88.0,
        "estimated_ground_area_sqm": 51.1
      }
    },
    {
      "type": "Feature",
      "id": "BLD-WORST-007",
      "geometry": {
        "type": "Polygon",
        "coordinates": [
          [
            [
              -115.2783202,
              36.1869051
            ],
            [
              -115.2783202,
              36.1868365
            ],
            [
              -115.2783064,
              36.1868228
            ],
            [
              -115.2779637,
              36.1868297
            ],
            [
              -115.2779637,
              36.1868982
            ],
            [
              -115.277998,
              36.1869257
            ],
            [
              -115.2782996,
              36.1869257
            ],
            [
              -115.2783202,
              36.1869051
            ]
          ]
        ]
      },
      "properties": {
        "id": "BLD-WORST-007",
        "class": "building",
        "source": "LightUNet",
        "tile_id": "1006",
        "confidence": 0.958,
        "pixel_area": 765.0,
        "estimated_ground_area_sqm": 443.9
      }
    },
    {
      "type": "Feature",
      "id": "BLD-WORST-008",
      "geometry": {
        "type": "Polygon",
        "coordinates": [
          [
            [
              -115.2788206,
              36.1870011
            ],
            [
              -115.2789166,
              36.1870079
            ],
            [
              -115.278944,
              36.1870011
            ],
            [
              -115.2789646,
              36.1869737
            ],
            [
              -115.2790468,
              36.1870011
            ],
            [
              -115.2791222,
              36.1870011
            ],
            [
              -115.2791702,
              36.1869805
            ],
            [
              -115.2792868,
              36.1869942
            ],
            [
              -115.2794376,
              36.1869874
            ],
            [
              -115.2794376,
              36.186864
            ],
            [
              -115.2793896,
              36.1868571
            ],
            [
              -115.2793622,
              36.1868228
            ],
            [
              -115.2792662,
              36.1868228
            ],
            [
              -115.2792525,
              36.1868023
            ],
            [
              -115.2792251,
              36.1868023
            ],
            [
              -115.2792251,
              36.1868228
            ],
            [
              -115.2792045,
              36.1868434
            ],
            [
              -115.2791702,
              36.1868434
            ],
            [
              -115.2791565,
              36.1868297
            ],
            [
              -115.2791634,
              36.1866857
            ],
            [
              -115.2791839,
              36.1866652
            ],
            [
              -115.2792319,
              36.1866789
            ],
            [
              -115.2792662,
              36.1866652
            ],
            [
              -115.2793622,
              36.1866652
            ],
            [
              -115.2793622,
              36.1866377
            ],
            [
              -115.2793348,
              36.1866035
            ],
            [
              -115.2793348,
              36.1865555
            ],
            [
              -115.2793553,
              36.1865486
            ],
            [
              -115.2793416,
              36.1865075
            ],
            [
              -115.2792799,
              36.1864869
            ],
            [
              -115.2792662,
              36.1865281
            ],
            [
              -115.2792731,
              36.1866103
            ],
            [
              -115.2792525,
              36.1866172
            ],
            [
              -115.2792319,
              36.1865212
            ],
            [
              -115.2791634,
              36.1865212
            ],
            [
              -115.2790948,
              36.1864595
            ],
            [
              -115.2790674,
              36.1864801
            ],
            [
              -115.2790126,
              36.1864938
            ],
            [
              -115.2790126,
              36.1865281
            ],
            [
              -115.2790743,
              36.1865281
            ],
            [
              -115.279088,
              36.1865555
            ],
            [
              -115.2790537,
              36.1865829
            ],
            [
              -115.2789851,
              36.1865966
            ],
            [
              -115.2789851,
              36.1867474
            ],
            [
              -115.2790263,
              36.1867748
            ],
            [
              -115.2790605,
              36.1867748
            ],
            [
              -115.2790743,
              36.1867611
            ],
            [
              -115.2791222,
              36.186768
            ],
            [
              -115.2791428,
              36.1867886
            ],
            [
              -115.2791428,
              36.1868228
            ],
            [
              -115.2791222,
              36.1868297
            ],
            [
              -115.2791085,
              36.1868091
            ],
            [
              -115.279088,
              36.1868091
            ],
            [
              -115.2790605,
              36.1868297
            ],
            [
              -115.2789851,
              36.1868297
            ],
            [
              -115.2789509,
              36.1868434
            ],
            [
              -115.2789303,
              36.1868297
            ],
            [
              -115.2789166,
              36.1867954
            ],
            [
              -115.2789166,
              36.1866446
            ],
            [
              -115.2789029,
              36.1865966
            ],
            [
              -115.2789029,
              36.1864732
            ],
            [
              -115.2788892,
              36.1863978
            ],
            [
              -115.2788686,
              36.1863909
            ],
            [
              -115.2788275,
              36.1864252
            ],
            [
              -115.2788275,
              36.1864801
            ],
            [
              -115.2787795,
              36.1864664
            ],
            [
              -115.2787658,
              36.1865212
            ],
            [
              -115.2787795,
              36.1865349
            ],
            [
              -115.2788069,
              36.1865349
            ],
            [
              -115.2788275,
              36.186576
            ],
            [
              -115.278848,
              36.1865623
            ],
            [
              -115.2788755,
              36.1865623
            ],
            [
              -115.2788892,
              36.186576
            ],
            [
              -115.2788823,
              36.1866035
            ],
            [
              -115.2787863,
              36.1866035
            ],
            [
              -115.2787863,
              36.1866926
            ],
            [
              -115.2788,
              36.18672
            ],
            [
              -115.2787863,
              36.1868503
            ],
            [
              -115.2788069,
              36.1868708
            ],
            [
              -115.2788206,
              36.1869188
            ],
            [
              -115.2788206,
              36.1870011
            ]
          ]
        ]
      },
      "properties": {
        "id": "BLD-WORST-008",
        "class": "building",
        "source": "LightUNet",
        "tile_id": "1006",
        "confidence": 0.869,
        "pixel_area": 4661.5,
        "estimated_ground_area_sqm": 2704.7
      }
    },
    {
      "type": "Feature",
      "id": "BLD-WORST-009",
      "geometry": {
        "type": "Polygon",
        "coordinates": [
          [
            [
              -115.2777306,
              36.1871039
            ],
            [
              -115.2777443,
              36.1870696
            ],
            [
              -115.2777374,
              36.1870079
            ],
            [
              -115.2776895,
              36.1870011
            ],
            [
              -115.2776895,
              36.1871039
            ],
            [
              -115.2777306,
              36.1871039
            ]
          ]
        ]
      },
      "properties": {
        "id": "BLD-WORST-009",
        "class": "building",
        "source": "LightUNet",
        "tile_id": "1006",
        "confidence": 0.917,
        "pixel_area": 108.0,
        "estimated_ground_area_sqm": 62.7
      }
    },
    {
      "type": "Feature",
      "id": "BLD-WORST-010",
      "geometry": {
        "type": "Polygon",
        "coordinates": [
          [
            [
              -115.2777237,
              36.1872547
            ],
            [
              -115.2777512,
              36.1872136
            ],
            [
              -115.2777512,
              36.1871862
            ],
            [
              -115.2777306,
              36.1871588
            ],
            [
              -115.2776895,
              36.1871588
            ],
            [
              -115.2776895,
              36.1872547
            ],
            [
              -115.2777237,
              36.1872547
            ]
          ]
        ]
      },
      "properties": {
        "id": "BLD-WORST-010",
        "class": "building",
        "source": "LightUNet",
        "tile_id": "1006",
        "confidence": 0.91,
        "pixel_area": 107.5,
        "estimated_ground_area_sqm": 62.4
      }
    },
    {
      "type": "Feature",
      "id": "BLD-WORST-011",
      "geometry": {
        "type": "Polygon",
        "coordinates": [
          [
            [
              -115.2780734,
              36.1872547
            ],
            [
              -115.2781008,
              36.1871862
            ],
            [
              -115.2781008,
              36.1871519
            ],
            [
              -115.2780871,
              36.1871382
            ],
            [
              -115.2780871,
              36.1870354
            ],
            [
              -115.2780665,
              36.1870148
            ],
            [
              -115.2779774,
              36.1870011
            ],
            [
              -115.2779637,
              36.1870148
            ],
            [
              -115.2779705,
              36.1871999
            ],
            [
              -115.2779431,
              36.1872205
            ],
            [
              -115.2779431,
              36.1872342
            ],
            [
              -115.2779637,
              36.1872342
            ],
            [
              -115.2779842,
              36.1872547
            ],
            [
              -115.2780734,
              36.1872547
            ]
          ]
        ]
      },
      "properties": {
        "id": "BLD-WORST-011",
        "class": "building",
        "source": "LightUNet",
        "tile_id": "1006",
        "confidence": 0.954,
        "pixel_area": 635.0,
        "estimated_ground_area_sqm": 368.4
      }
    },
    {
      "type": "Feature",
      "id": "BLD-WORST-012",
      "geometry": {
        "type": "Polygon",
        "coordinates": [
          [
            [
              -115.2782722,
              36.1872547
            ],
            [
              -115.2782996,
              36.187241
            ],
            [
              -115.2783064,
              36.1870765
            ],
            [
              -115.2783202,
              36.1870354
            ],
            [
              -115.2782996,
              36.1870011
            ],
            [
              -115.2782447,
              36.1869942
            ],
            [
              -115.278183,
              36.1870148
            ],
            [
              -115.2781762,
              36.1870285
            ],
            [
              -115.278183,
              36.1872342
            ],
            [
              -115.2782242,
              36.1872547
            ],
            [
              -115.2782722,
              36.1872547
            ]
          ]
        ]
      },
      "properties": {
        "id": "BLD-WORST-012",
        "class": "building",
        "source": "LightUNet",
        "tile_id": "1006",
        "confidence": 0.959,
        "pixel_area": 658.5,
        "estimated_ground_area_sqm": 382.1
      }
    },
    {
      "type": "Feature",
      "id": "BLD-WORST-013",
      "geometry": {
        "type": "Polygon",
        "coordinates": [
          [
            [
              -115.2780665,
              36.187433
            ],
            [
              -115.2780665,
              36.187385
            ],
            [
              -115.2780528,
              36.1873713
            ],
            [
              -115.2777169,
              36.1873576
            ],
            [
              -115.27771,
              36.1873713
            ],
            [
              -115.2777169,
              36.1874261
            ],
            [
              -115.2777443,
              36.1874604
            ],
            [
              -115.2777786,
              36.1874604
            ],
            [
              -115.2777991,
              36.1874741
            ],
            [
              -115.2780322,
              36.1874741
            ],
            [
              -115.2780528,
              36.1874673
            ],
            [
              -115.2780665,
              36.187433
            ]
          ]
        ]
      },
      "properties": {
        "id": "BLD-WORST-013",
        "class": "building",
        "source": "LightUNet",
        "tile_id": "1006",
        "confidence": 0.951,
        "pixel_area": 760.0,
        "estimated_ground_area_sqm": 441.0
      }
    },
    {
      "type": "Feature",
      "id": "BLD-WORST-014",
      "geometry": {
        "type": "Polygon",
        "coordinates": [
          [
            [
              -115.2780597,
              36.1876112
            ],
            [
              -115.2780597,
              36.1875632
            ],
            [
              -115.2780391,
              36.1875427
            ],
            [
              -115.2777786,
              36.1875358
            ],
            [
              -115.2777786,
              36.1876249
            ],
            [
              -115.2777991,
              36.1876455
            ],
            [
              -115.2780459,
              36.1876455
            ],
            [
              -115.2780597,
              36.1876112
            ]
          ]
        ]
      },
      "properties": {
        "id": "BLD-WORST-014",
        "class": "building",
        "source": "LightUNet",
        "tile_id": "1006",
        "confidence": 0.957,
        "pixel_area": 605.0,
        "estimated_ground_area_sqm": 351.0
      }
    },
    {
      "type": "Feature",
      "id": "BLD-WORST-015",
      "geometry": {
        "type": "Polygon",
        "coordinates": [
          [
            [
              -115.2783064,
              36.1876661
            ],
            [
              -115.2783339,
              36.1876455
            ],
            [
              -115.2783339,
              36.1875221
            ],
            [
              -115.2783202,
              36.1875084
            ],
            [
              -115.2783133,
              36.187385
            ],
            [
              -115.2782996,
              36.1873713
            ],
            [
              -115.2781968,
              36.1873713
            ],
            [
              -115.2781899,
              36.1874878
            ],
            [
              -115.2782173,
              36.1875975
            ],
            [
              -115.2782173,
              36.1876523
            ],
            [
              -115.2782447,
              36.1876661
            ],
            [
              -115.2783064,
              36.1876661
            ]
          ]
        ]
      },
      "properties": {
        "id": "BLD-WORST-015",
        "class": "building",
        "source": "LightUNet",
        "tile_id": "1006",
        "confidence": 0.967,
        "pixel_area": 761.5,
        "estimated_ground_area_sqm": 441.8
      }
    },
    {
      "type": "Feature",
      "id": "BLD-WORST-016",
      "geometry": {
        "type": "Polygon",
        "coordinates": [
          [
            [
              -115.27795,
              36.187906
            ],
            [
              -115.27795,
              36.1878717
            ],
            [
              -115.277902,
              36.1878717
            ],
            [
              -115.277902,
              36.1878854
            ],
            [
              -115.2779294,
              36.187906
            ],
            [
              -115.27795,
              36.187906
            ]
          ]
        ]
      },
      "properties": {
        "id": "BLD-WORST-016",
        "class": "building",
        "source": "LightUNet",
        "tile_id": "1006",
        "confidence": 0.692,
        "pixel_area": 26.0,
        "estimated_ground_area_sqm": 15.1
      }
    },
    {
      "type": "Feature",
      "id": "BLD-WORST-017",
      "geometry": {
        "type": "Polygon",
        "coordinates": [
          [
            [
              -115.2788549,
              36.1879334
            ],
            [
              -115.2788617,
              36.1878649
            ],
            [
              -115.2788412,
              36.187858
            ],
            [
              -115.2788343,
              36.1879197
            ],
            [
              -115.2788549,
              36.1879334
            ]
          ]
        ]
      },
      "properties": {
        "id": "BLD-WORST-017",
        "class": "building",
        "source": "LightUNet",
        "tile_id": "1006",
        "confidence": 0.614,
        "pixel_area": 39.0,
        "estimated_ground_area_sqm": 22.6
      }
    },
    {
      "type": "Feature",
      "id": "BLD-WORST-018",
      "geometry": {
        "type": "Polygon",
        "coordinates": [
          [
            [
              -115.2778197,
              36.1879677
            ],
            [
              -115.2778403,
              36.187906
            ],
            [
              -115.2778471,
              36.1877278
            ],
            [
              -115.2778334,
              36.1877072
            ],
            [
              -115.2777237,
              36.1877072
            ],
            [
              -115.27771,
              36.1877209
            ],
            [
              -115.2777032,
              36.1877757
            ],
            [
              -115.27771,
              36.1879677
            ],
            [
              -115.2778197,
              36.1879677
            ]
          ]
        ]
      },
      "properties": {
        "id": "BLD-WORST-018",
        "class": "building",
        "source": "LightUNet",
        "tile_id": "1006",
        "confidence": 0.958,
        "pixel_area": 721.0,
        "estimated_ground_area_sqm": 418.3
      }
    },
    {
      "type": "Feature",
      "id": "BLD-WORST-020",
      "geometry": {
        "type": "Polygon",
        "coordinates": [
          [
            [
              -115.2781282,
              36.1879677
            ],
            [
              -115.2781351,
              36.1877346
            ],
            [
              -115.2781076,
              36.187714
            ],
            [
              -115.2780117,
              36.1877072
            ],
            [
              -115.2780048,
              36.1877346
            ],
            [
              -115.2780185,
              36.1877826
            ],
            [
              -115.2780048,
              36.1878169
            ],
            [
              -115.2780048,
              36.1879677
            ],
            [
              -115.2781282,
              36.1879677
            ]
          ]
        ]
      },
      "properties": {
        "id": "BLD-WORST-020",
        "class": "building",
        "source": "LightUNet",
        "tile_id": "1006",
        "confidence": 0.967,
        "pixel_area": 684.0,
        "estimated_ground_area_sqm": 396.9
      }
    },
    {
      "type": "Feature",
      "id": "BLD-WORST-021",
      "geometry": {
        "type": "Polygon",
        "coordinates": [
          [
            [
              -115.2783339,
              36.1879677
            ],
            [
              -115.2783544,
              36.1877552
            ],
            [
              -115.2783339,
              36.1877346
            ],
            [
              -115.2782242,
              36.1877346
            ],
            [
              -115.2782105,
              36.18781
            ],
            [
              -115.2782173,
              36.1879677
            ],
            [
              -115.2783339,
              36.1879677
            ]
          ]
        ]
      },
      "properties": {
        "id": "BLD-WORST-021",
        "class": "building",
        "source": "LightUNet",
        "tile_id": "1006",
        "confidence": 0.963,
        "pixel_area": 635.5,
        "estimated_ground_area_sqm": 368.7
      }
    }
  ]
}