{
  "type": "FeatureCollection",
  "name": "SpaceNet2_Vegas_Inference_Tile127_Buildings",
  "crs": {
    "type": "name",
    "properties": {
      "name": "urn:ogc:def:crs:OGC:1.3:CRS84"
    }
  },
  "properties": {
    "source_tile_id": "127",
    "model": "LightUNet",
    "model_checkpoint": "best_model.pth",
    "inference_device": "cpu",
    "inference_time_ms": 60.74,
    "validation_dice": 0.8799,
    "validation_iou": 0.7856,
    "total_buildings_detected": 16
  },
  "features": [
    {
      "type": "Feature",
      "id": "BLD-INF-001",
      "geometry": {
        "type": "Polygon",
        "coordinates": [
          [
            [
              -115.3040076,
              36.1548421
            ],
            [
              -115.3040076,
              36.1546638
            ],
            [
              -115.3039528,
              36.1546707
            ],
            [
              -115.3039253,
              36.1546501
            ],
            [
              -115.3038911,
              36.154657
            ],
            [
              -115.3038499,
              36.1547118
            ],
            [
              -115.3038499,
              36.1547735
            ],
            [
              -115.3038773,
              36.1548284
            ],
            [
              -115.3039733,
              36.1548284
            ],
            [
              -115.3040076,
              36.1548421
            ]
          ]
        ]
      },
      "properties": {
        "id": "BLD-INF-001",
        "class": "building",
        "source": "LightUNet",
        "model_checkpoint": "best_model.pth",
        "confidence": 0.958,
        "pixel_area_256": 530.0,
        "estimated_ground_area_sqm": 307.5
      }
    },
    {
      "type": "Feature",
      "id": "BLD-INF-002",
      "geometry": {
        "type": "Polygon",
        "coordinates": [
          [
            [
              -115.3033083,
              36.1548695
            ],
            [
              -115.3033221,
              36.1547667
            ],
            [
              -115.3033152,
              36.1547324
            ],
            [
              -115.3032809,
              36.1546981
            ],
            [
              -115.3032466,
              36.1546913
            ],
            [
              -115.3032329,
              36.154657
            ],
            [
              -115.3032192,
              36.154657
            ],
            [
              -115.3031987,
              36.1546844
            ],
            [
              -115.303137,
              36.1546775
            ],
            [
              -115.3031301,
              36.154705
            ],
            [
              -115.3031712,
              36.1547872
            ],
            [
              -115.3031712,
              36.1548421
            ],
            [
              -115.3032535,
              36.1548489
            ],
            [
              -115.3032672,
              36.1548695
            ],
            [
              -115.3033083,
              36.1548695
            ]
          ]
        ]
      },
      "properties": {
        "id": "BLD-INF-002",
        "class": "building",
        "source": "LightUNet",
        "model_checkpoint": "best_model.pth",
        "confidence": 0.944,
        "pixel_area_256": 576.5,
        "estimated_ground_area_sqm": 334.5
      }
    },
    {
      "type": "Feature",
      "id": "BLD-INF-003",
      "geometry": {
        "type": "Polygon",
        "coordinates": [
          [
            [
              -115.3033769,
              36.1548764
            ],
            [
              -115.3034386,
              36.1548764
            ],
            [
              -115.3034797,
              36.1548558
            ],
            [
              -115.3035346,
              36.1548489
            ],
            [
              -115.3035551,
              36.1547461
            ],
            [
              -115.3035277,
              36.1546981
            ],
            [
              -115.3033838,
              36.1546844
            ],
            [
              -115.3033563,
              36.154705
            ],
            [
              -115.3033769,
              36.1548764
            ]
          ]
        ]
      },
      "properties": {
        "id": "BLD-INF-003",
        "class": "building",
        "source": "LightUNet",
        "model_checkpoint": "best_model.pth",
        "confidence": 0.959,
        "pixel_area_256": 677.5,
        "estimated_ground_area_sqm": 393.1
      }
    },
    {
      "type": "Feature",
      "id": "BLD-INF-004",
      "geometry": {
        "type": "Polygon",
        "coordinates": [
          [
            [
              -115.3030753,
              36.1549449
            ],
            [
              -115.3030753,
              36.1549106
            ],
            [
              -115.3030478,
              36.1549038
            ],
            [
              -115.3029793,
              36.1548489
            ],
            [
              -115.3029176,
              36.1548284
            ],
            [
              -115.3028353,
              36.1548489
            ],
            [
              -115.3028422,
              36.1549655
            ],
            [
              -115.302897,
              36.1550066
            ],
            [
              -115.3029313,
              36.1550135
            ],
            [
              -115.3029998,
              36.1549792
            ],
            [
              -115.3030273,
              36.1549792
            ],
            [
              -115.3030753,
              36.1549449
            ]
          ]
        ]
      },
      "properties": {
        "id": "BLD-INF-004",
        "class": "building",
        "source": "LightUNet",
        "model_checkpoint": "best_model.pth",
        "confidence": 0.955,
        "pixel_area_256": 647.5,
        "estimated_ground_area_sqm": 375.7
      }
    },
    {
      "type": "Feature",
      "id": "BLD-INF-005",
      "geometry": {
        "type": "Polygon",
        "coordinates": [
          [
            [
              -115.30337,
              36.1552328
            ],
            [
              -115.3034797,
              36.1552397
            ],
            [
              -115.30361,
              36.155226
            ],
            [
              -115.30361,
              36.1551231
            ],
            [
              -115.3035688,
              36.1550957
            ],
            [
              -115.303514,
              36.1550957
            ],
            [
              -115.3034249,
              36.1551231
            ],
            [
              -115.3033838,
              36.1551163
            ],
            [
              -115.3033632,
              36.155178
            ],
            [
              -115.30337,
              36.1552328
            ]
          ]
        ]
      },
      "properties": {
        "id": "BLD-INF-005",
        "class": "building",
        "source": "LightUNet",
        "model_checkpoint": "best_model.pth",
        "confidence": 0.923,
        "pixel_area_256": 638.0,
        "estimated_ground_area_sqm": 370.2
      }
    },
    {
      "type": "Feature",
      "id": "BLD-INF-006",
      "geometry": {
        "type": "Polygon",
        "coordinates": [
          [
            [
              -115.3037128,
              36.1552397
            ],
            [
              -115.3037471,
              36.1552465
            ],
            [
              -115.3037745,
              36.155274
            ],
            [
              -115.3038362,
              36.1552877
            ],
            [
              -115.3038911,
              36.1552603
            ],
            [
              -115.3038911,
              36.1552191
            ],
            [
              -115.3039185,
              36.1552054
            ],
            [
              -115.3039322,
              36.1552465
            ],
            [
              -115.3040076,
              36.1552603
            ],
            [
              -115.3040076,
              36.155082
            ],
            [
              -115.303987,
              36.155082
            ],
            [
              -115.3039802,
              36.1551094
            ],
            [
              -115.3039459,
              36.1551437
            ],
            [
              -115.3038979,
              36.1551506
            ],
            [
              -115.3038225,
              36.1551163
            ],
            [
              -115.3037882,
              36.155082
            ],
            [
              -115.3037745,
              36.1550477
            ],
            [
              -115.3037128,
              36.1550614
            ],
            [
              -115.3036991,
              36.1551506
            ],
            [
              -115.3037128,
              36.1552397
            ]
          ]
        ]
      },
      "properties": {
        "id": "BLD-INF-006",
        "class": "building",
        "source": "LightUNet",
        "model_checkpoint": "best_model.pth",
        "confidence": 0.939,
        "pixel_area_256": 982.0,
        "estimated_ground_area_sqm": 569.8
      }
    },
    {
      "type": "Feature",
      "id": "BLD-INF-007",
      "geometry": {
        "type": "Polygon",
        "coordinates": [
          [
            [
              -115.3035688,
              36.1554111
            ],
            [
              -115.3035757,
              36.1553837
            ],
            [
              -115.3036031,
              36.1553631
            ],
            [
              -115.3035963,
              36.1553014
            ],
            [
              -115.3035757,
              36.155274
            ],
            [
              -115.3034386,
              36.1552671
            ],
            [
              -115.303418,
              36.1553288
            ],
            [
              -115.3033838,
              36.1553494
            ],
            [
              -115.3033906,
              36.1554042
            ],
            [
              -115.3034112,
              36.1554179
            ],
            [
              -115.3035688,
              36.1554111
            ]
          ]
        ]
      },
      "properties": {
        "id": "BLD-INF-007",
        "class": "building",
        "source": "LightUNet",
        "model_checkpoint": "best_model.pth",
        "confidence": 0.941,
        "pixel_area_256": 574.0,
        "estimated_ground_area_sqm": 333.0
      }
    },
    {
      "type": "Feature",
      "id": "BLD-INF-008",
      "geometry": {
        "type": "Polygon",
        "coordinates": [
          [
            [
              -115.3030821,
              36.1555276
            ],
            [
              -115.3030958,
              36.1554796
            ],
            [
              -115.3030478,
              36.1554454
            ],
            [
              -115.3030341,
              36.1554111
            ],
            [
              -115.3029861,
              36.1554042
            ],
            [
              -115.3029861,
              36.1553905
            ],
            [
              -115.3030136,
              36.1553768
            ],
            [
              -115.3030273,
              36.1553151
            ],
            [
              -115.3030547,
              36.1553014
            ],
            [
              -115.3030615,
              36.1552465
            ],
            [
              -115.303041,
              36.1552328
            ],
            [
              -115.3030478,
              36.155178
            ],
            [
              -115.3030341,
              36.1551643
            ],
            [
              -115.3030341,
              36.1551094
            ],
            [
              -115.302993,
              36.1550752
            ],
            [
              -115.3028696,
              36.1550683
            ],
            [
              -115.3028285,
              36.1551026
            ],
            [
              -115.3028285,
              36.1551574
            ],
            [
              -115.3028696,
              36.1552328
            ],
            [
              -115.3028285,
              36.1552671
            ],
            [
              -115.3028147,
              36.1553425
            ],
            [
              -115.3028422,
              36.1553494
            ],
            [
              -115.3028559,
              36.1553699
            ],
            [
              -115.3028833,
              36.1553699
            ],
            [
              -115.302897,
              36.1553905
            ],
            [
              -115.3029724,
              36.1553905
            ],
            [
              -115.3029793,
              36.1554111
            ],
            [
              -115.3028422,
              36.1554248
            ],
            [
              -115.3028216,
              36.1554591
            ],
            [
              -115.3028285,
              36.1555413
            ],
            [
              -115.302849,
              36.155555
            ],
            [
              -115.3029244,
              36.155555
            ],
            [
              -115.3030821,
              36.1555276
            ]
          ]
        ]
      },
      "properties": {
        "id": "BLD-INF-008",
        "class": "building",
        "source": "LightUNet",
        "model_checkpoint": "best_model.pth",
        "confidence": 0.933,
        "pixel_area_256": 2000.0,
        "estimated_ground_area_sqm": 1160.4
      }
    },
    {
      "type": "Feature",
      "id": "BLD-INF-009",
      "geometry": {
        "type": "Polygon",
        "coordinates": [
          [
            [
              -115.3036237,
              36.1555482
            ],
            [
              -115.3036237,
              36.1555002
            ],
            [
              -115.3035894,
              36.1554796
            ],
            [
              -115.3035757,
              36.1554522
            ],
            [
              -115.3034729,
              36.1554454
            ],
            [
              -115.3034317,
              36.1554522
            ],
            [
              -115.3033906,
              36.1554796
            ],
            [
              -115.3033906,
              36.1554933
            ],
            [
              -115.3034386,
              36.1555345
            ],
            [
              -115.3034455,
              36.1555893
            ],
            [
              -115.3035963,
              36.1555825
            ],
            [
              -115.3036237,
              36.1555482
            ]
          ]
        ]
      },
      "properties": {
        "id": "BLD-INF-009",
        "class": "building",
        "source": "LightUNet",
        "model_checkpoint": "best_model.pth",
        "confidence": 0.954,
        "pixel_area_256": 550.5,
        "estimated_ground_area_sqm": 319.4
      }
    },
    {
      "type": "Feature",
      "id": "BLD-INF-010",
      "geometry": {
        "type": "Polygon",
        "coordinates": [
          [
            [
              -115.3037882,
              36.155651
            ],
            [
              -115.3038088,
              36.1556579
            ],
            [
              -115.3038636,
              36.1556442
            ],
            [
              -115.3039528,
              36.1555825
            ],
            [
              -115.3040076,
              36.1555962
            ],
            [
              -115.3040076,
              36.1554385
            ],
            [
              -115.3039596,
              36.1554454
            ],
            [
              -115.303939,
              36.1554865
            ],
            [
              -115.3039116,
              36.1554865
            ],
            [
              -115.3038568,
              36.1554454
            ],
            [
              -115.3037677,
              36.1554728
            ],
            [
              -115.3037677,
              36.155603
            ],
            [
              -115.3037882,
              36.155651
            ]
          ]
        ]
      },
      "properties": {
        "id": "BLD-INF-010",
        "class": "building",
        "source": "LightUNet",
        "model_checkpoint": "best_model.pth",
        "confidence": 0.948,
        "pixel_area_256": 817.0,
        "estimated_ground_area_sqm": 474.0
      }
    },
    {
      "type": "Feature",
      "id": "BLD-INF-011",
      "geometry": {
        "type": "Polygon",
        "coordinates": [
          [
            [
              -115.302897,
              36.1556373
            ],
            [
              -115.3029039,
              36.1556853
            ],
            [
              -115.3029313,
              36.1557264
            ],
            [
              -115.3029587,
              36.1557333
            ],
            [
              -115.3031164,
              36.1557059
            ],
            [
              -115.3031507,
              36.1556784
            ],
            [
              -115.3031301,
              36.1556442
            ],
            [
              -115.3030958,
              36.1556373
            ],
            [
              -115.3030136,
              36.1555688
            ],
            [
              -115.3029176,
              36.1555825
            ],
            [
              -115.302897,
              36.1556373
            ]
          ]
        ]
      },
      "properties": {
        "id": "BLD-INF-011",
        "class": "building",
        "source": "LightUNet",
        "model_checkpoint": "best_model.pth",
        "confidence": 0.952,
        "pixel_area_256": 600.0,
        "estimated_ground_area_sqm": 348.1
      }
    },
    {
      "type": "Feature",
      "id": "BLD-INF-012",
      "geometry": {
        "type": "Polygon",
        "coordinates": [
          [
            [
              -115.3034386,
              36.1556922
            ],
            [
              -115.3034866,
              36.1557333
            ],
            [
              -115.3034934,
              36.1557676
            ],
            [
              -115.3036168,
              36.155747
            ],
            [
              -115.3036854,
              36.1557127
            ],
            [
              -115.3036648,
              36.1556305
            ],
            [
              -115.3036305,
              36.1556305
            ],
            [
              -115.3036168,
              36.1556099
            ],
            [
              -115.3035483,
              36.1556167
            ],
            [
              -115.3035346,
              36.1556579
            ],
            [
              -115.3034386,
              36.1556579
            ],
            [
              -115.3034386,
              36.1556922
            ]
          ]
        ]
      },
      "properties": {
        "id": "BLD-INF-012",
        "class": "building",
        "source": "LightUNet",
        "model_checkpoint": "best_model.pth",
        "confidence": 0.91,
        "pixel_area_256": 539.0,
        "estimated_ground_area_sqm": 312.7
      }
    },
    {
      "type": "Feature",
      "id": "BLD-INF-013",
      "geometry": {
        "type": "Polygon",
        "coordinates": [
          [
            [
              -115.3035688,
              36.1561652
            ],
            [
              -115.3036305,
              36.156172
            ],
            [
              -115.3036648,
              36.1561583
            ],
            [
              -115.3036922,
              36.1561103
            ],
            [
              -115.3037197,
              36.1560966
            ],
            [
              -115.303706,
              36.1560486
            ],
            [
              -115.3037128,
              36.1560281
            ],
            [
              -115.3037334,
              36.1560349
            ],
            [
              -115.3037539,
              36.1560761
            ],
            [
              -115.3037539,
              36.1561172
            ],
            [
              -115.3037745,
              36.156124
            ],
            [
              -115.3038705,
              36.1561172
            ],
            [
              -115.3039322,
              36.1560829
            ],
            [
              -115.3039116,
              36.1560144
            ],
            [
              -115.3039185,
              36.1559869
            ],
            [
              -115.303939,
              36.1559938
            ],
            [
              -115.3039665,
              36.1560623
            ],
            [
              -115.3039802,
              36.1560761
            ],
            [
              -115.3040076,
              36.1560761
            ],
            [
              -115.3040076,
              36.155891
            ],
            [
              -115.3039596,
              36.1558841
            ],
            [
              -115.3039459,
              36.1558978
            ],
            [
              -115.3039116,
              36.1558978
            ],
            [
              -115.3039048,
              36.1559458
            ],
            [
              -115.3038705,
              36.1559252
            ],
            [
              -115.3038088,
              36.1559252
            ],
            [
              -115.3037745,
              36.155891
            ],
            [
              -115.3037128,
              36.1559047
            ],
            [
              -115.3036922,
              36.1559321
            ],
            [
              -115.3036922,
              36.1559869
            ],
            [
              -115.3036305,
              36.1559732
            ],
            [
              -115.3035483,
              36.1560623
            ],
            [
              -115.3035414,
              36.1560966
            ],
            [
              -115.3035688,
              36.1561652
            ]
          ]
        ]
      },
      "properties": {
        "id": "BLD-INF-013",
        "class": "building",
        "source": "LightUNet",
        "model_checkpoint": "best_model.pth",
        "confidence": 0.937,
        "pixel_area_256": 1664.5,
        "estimated_ground_area_sqm": 965.8
      }
    },
    {
      "type": "Feature",
      "id": "BLD-INF-014",
      "geometry": {
        "type": "Polygon",
        "coordinates": [
          [
            [
              -115.30337,
              36.1563297
            ],
            [
              -115.3033769,
              36.1562886
            ],
            [
              -115.3033632,
              36.156268
            ],
            [
              -115.3033221,
              36.156268
            ],
            [
              -115.3033015,
              36.1562543
            ],
            [
              -115.3032878,
              36.15622
            ],
            [
              -115.3032466,
              36.1562132
            ],
            [
              -115.3032466,
              36.1561995
            ],
            [
              -115.3032809,
              36.1561789
            ],
            [
              -115.3032809,
              36.1561515
            ],
            [
              -115.3031712,
              36.1560623
            ],
            [
              -115.3031644,
              36.1560075
            ],
            [
              -115.3031849,
              36.1559595
            ],
            [
              -115.3031849,
              36.1559184
            ],
            [
              -115.3031712,
              36.1558978
            ],
            [
              -115.3031438,
              36.155891
            ],
            [
              -115.3031438,
              36.1558773
            ],
            [
              -115.3031712,
              36.1558635
            ],
            [
              -115.3031712,
              36.1558293
            ],
            [
              -115.3031232,
              36.1557881
            ],
            [
              -115.3031232,
              36.1557607
            ],
            [
              -115.3030958,
              36.155747
            ],
            [
              -115.3030273,
              36.155747
            ],
            [
              -115.3029381,
              36.1557744
            ],
            [
              -115.3029244,
              36.1557881
            ],
            [
              -115.3029381,
              36.155843
            ],
            [
              -115.3030204,
              36.155891
            ],
            [
              -115.3030547,
              36.1558978
            ],
            [
              -115.3030478,
              36.1559184
            ],
            [
              -115.3029998,
              36.1559252
            ],
            [
              -115.3030067,
              36.1560212
            ],
            [
              -115.303041,
              36.1560418
            ],
            [
              -115.3030547,
              36.1560761
            ],
            [
              -115.303041,
              36.1561172
            ],
            [
              -115.3030478,
              36.1561652
            ],
            [
              -115.303089,
              36.1561926
            ],
            [
              -115.3031164,
              36.1561926
            ],
            [
              -115.303137,
              36.15622
            ],
            [
              -115.3031781,
              36.1562269
            ],
            [
              -115.3031644,
              36.1562543
            ],
            [
              -115.3031301,
              36.1562543
            ],
            [
              -115.3030958,
              36.1562817
            ],
            [
              -115.3030753,
              36.1562817
            ],
            [
              -115.3030821,
              36.1563297
            ],
            [
              -115.3031164,
              36.1563434
            ],
            [
              -115.3031301,
              36.1563777
            ],
            [
              -115.3032535,
              36.1563777
            ],
            [
              -115.3032946,
              36.1563434
            ],
            [
              -115.30337,
              36.1563297
            ]
          ]
        ]
      },
      "properties": {
        "id": "BLD-INF-014",
        "class": "building",
        "source": "LightUNet",
        "model_checkpoint": "best_model.pth",
        "confidence": 0.931,
        "pixel_area_256": 2436.5,
        "estimated_ground_area_sqm": 1413.7
      }
    },
    {
      "type": "Feature",
      "id": "BLD-INF-015",
      "geometry": {
        "type": "Polygon",
        "coordinates": [
          [
            [
              -115.3037334,
              36.1563777
            ],
            [
              -115.3037265,
              36.1562954
            ],
            [
              -115.3036991,
              36.1562749
            ],
            [
              -115.3036237,
              36.1562886
            ],
            [
              -115.3036168,
              36.1563434
            ],
            [
              -115.3036374,
              36.1563777
            ],
            [
              -115.3037334,
              36.1563777
            ]
          ]
        ]
      },
      "properties": {
        "id": "BLD-INF-015",
        "class": "building",
        "source": "LightUNet",
        "model_checkpoint": "best_model.pth",
        "confidence": 0.936,
        "pixel_area_256": 222.0,
        "estimated_ground_area_sqm": 128.8
      }
    },
    {
      "type": "Feature",
      "id": "BLD-INF-016",
      "geometry": {
        "type": "Polygon",
        "coordinates": [
          [
            [
              -115.3040076,
              36.1563777
            ],
            [
              -115.3040076,
              36.1562132
            ],
            [
              -115.3039185,
              36.1562132
            ],
            [
              -115.3039048,
              36.1562543
            ],
            [
              -115.3038499,
              36.1562474
            ],
            [
              -115.3038362,
              36.156268
            ],
            [
              -115.3037951,
              36.156268
            ],
            [
              -115.3037882,
              36.1563091
            ],
            [
              -115.3038225,
              36.1563777
            ],
            [
              -115.3039322,
              36.1563777
            ],
            [
              -115.303939,
              36.1563571
            ],
            [
              -115.3039528,
              36.1563571
            ],
            [
              -115.3039596,
              36.1563777
            ],
            [
              -115.3040076,
              36.1563777
            ]
          ]
        ]
      },
      "properties": {
        "id": "BLD-INF-016",
        "class": "building",
        "source": "LightUNet",
        "model_checkpoint": "best_model.pth",
        "confidence": 0.921,
        "pixel_area_256": 609.5,
        "estimated_ground_area_sqm": 353.6
      }
    }
  ]
}